Break Mark,IM Barcode,Creative_Version_Cd,Tray Number,Sort Position,Endorsement Line,Full Name,Title,Address Line 1,Address Line 2,City State ZIP Code,STORE NAME,STORE ADDRESS 1,STORE ADDRESS2,SCITY,SSTATE,SZIP,Store_Phone_Number,Store_License,EXPIRES,VERSION,CAMPAIGNDATE
,FFTDDDFDTAAATADAFTDFFATFFTFFAFAFFDFAADDFFATTDAFTTDFFDAADDFAADTAFT,RAC2501-DM06-A-PO,2,74,***************AUTO**MIXED AADC 786,Samantha Daniels,OR CURRENT RESIDENT,3051 Middle Rd.,,Sidney ME 04330-2625,Rent-A-Center,180 Elm Plz,,Waterville,ME,04901-4936,(207) 861-5941,,Offer Expires 01/13/2025,,12/30/2024
,DDTAFADAFDDATFFAAFTDDFFFFAATTTFDTFADAADFFFTADDTTTFFFTTFAADADDTFAF,RAC2501-DM06-A-PO,2,77,***************AUTO**MIXED AADC 786,Cheryl / Michael Shawphilpot,OR CURRENT RESIDENT,381 Hudson Rd.,,Corinth ME 04427-3214,Rent-A-Center,180 Elm Plz,,Waterville,ME,04901-4936,(207) 861-5941,,Offer Expires 01/13/2025,,12/30/2024
,DADATAFAFAFAFFFDAFDFFDTFTFDTFDDATTDDAFDDATDAATADFADTADDTDFTATADDD,RAC2501-DM06-A-PO,2,105,***************AUTO**MIXED AADC 786,Tishbeth Solis,OR CURRENT RESIDENT,15 New Ln.,,Cromwell CT 06416-2059,Rent-A-Center,340 E Main Street,,Middletown,CT,06457-4509,(860) 344-8301,,Offer Expires 01/13/2025,,12/30/2024
,ADTFTTFTAADFATFDDTTDTDDTATADTDTTAAAFTFFTADAFFFTFDTTDTFFAATTDDATDA,RAC2501-DM06-A-PO,2,106,***************AUTO**MIXED AADC 786,Johanilett Batista,OR CURRENT RESIDENT,192 Main St.,,Deep River CT 06417-2035,Rent-A-Center,340 E Main Street,,Middletown,CT,06457-4509,(860) 344-8301,,Offer Expires 01/13/2025,,12/30/2024
,DFDDFDFATDDFTAFADATAADDAFDFDAFTATFDTFAFDDFFDTTADFATFADTDDTDAFDFTF,RAC2501-DM06-A-PO,2,107,***************AUTO**MIXED AADC 786,Nilmarie Cruz Rodriguez,OR CURRENT RESIDENT,32 Cook Ave.,,Meriden CT 06451-4150,Rent-A-Center,533 S Broad St,Ste 7,Meriden,CT,06450-6661,(203) 639-0400,,Offer Expires 01/13/2025,,12/30/2024
,FFTATFDTFFDFTFFTDATTADFDATDDAAFTFDFFDADFFDAAADFTFFDTTFDAFFFTFDTTF,RAC2501-DM06-A-PO,2,108,***************AUTO**MIXED AADC 786,Lawrence Fuller,OR CURRENT RESIDENT,131 Ledgeside Ave.,,Waterbury CT 06708-2707,Rent-A-Center,104 Thomaston Ave,,Waterbury,CT,06702-1018,(203) 753-0306,,Offer Expires 01/13/2025,,12/30/2024
,TDDDTTAATTFFDADDTTTTTTDTFFFAFFTAADADDTTFTADADTAFATDADTDDAFATFDTFA,RAC2501-DM06-A-PO,2,307,***************AUTO**MIXED AADC 786,Kevin Gillis,OR CURRENT RESIDENT,55 Cole Blvd.,,Middletown DE 19709-1615,Rent-A-Center,120b E Glenwood Ave,,Smyrna,DE,19977-1003,(302) 653-3701,,Offer Expires 01/13/2025,,12/30/2024
,TDFTFTFTTTTFDADTADATFTFFDDAATTFDFTATAFADTFFDDDTTDFAFDFFFFTFATTAAF,RAC2501-DM06-A-PO,2,308,***************AUTO**MIXED AADC 786,Lorena Russell,OR CURRENT RESIDENT,1119 Pleasant St.,,Wilmington DE 19805-3652,Rent-A-Center,1932 Maryland Ave,,Wilmington,DE,19805-4605,(302) 654-7700,,Offer Expires 01/13/2025,,12/30/2024
,TATAADTAFATATFADDAFATFTAFTDTATFDTFAFDAFTDAFFDFFTTTDTFFDDFTTAATFTA,RAC2501-DM06-A-PO,2,310,***************AUTO**MIXED AADC 786,Amber Lopez,OR CURRENT RESIDENT,120 Bloomsbury Ave.,,Havre De Grace MD 21078-3731,Rent-A-Center,971 Beards Hill Rd,Ste B,Aberdeen,MD,21001-1734,(410) 273-7290,,Offer Expires 01/13/2025,,12/30/2024
,TFFATAFDTFDTTDDADADDFTATAAFTFTTFTFTDATADATAADDFADTDATAFDAFFFADFFA,RAC2501-DM06-A-PO,2,313,***************AUTO**MIXED AADC 786,David T Copenhaver,OR CURRENT RESIDENT,413 Merrey St.,,North East MD 21901-3827,Rent-A-Center,112 Ne Plaza,,North East,MD,21901-3632,(410) 287-3570,,Offer Expires 01/13/2025,,12/30/2024
,DFFDFDDAFAADFTTFTDFTTADTTDTFFATFDTATFFFTTFDTDFDFTDDDTFFTTFFDDDDTT,RAC2501-DM06-A-PO,2,349,***************AUTO**MIXED AADC 786,Aaron Reedy,OR CURRENT RESIDENT,104 Prater Dr.,,Richlands VA 24641-2613,Rent-A-Center,2004 2nd St,,Richlands,VA,24641-2306,(276) 596-9137,,Offer Expires 01/13/2025,,12/30/2024
,FFTFDATFDFFTTADDTTDTFATTAAAFTAFDATTADADFAAFATADADFTFDAFDTDFAADTTT,RAC2501-DM06-A-PO,2,392,***************AUTO**MIXED AADC 786,Michael Pyles,OR CURRENT RESIDENT,1558 State Highway 319,,Hardy KY 41531-8704,Rent-A-Center,244 Cassidy Blvd,#500,Pikeville,KY,41501-1502,(606) 432-2647,,Offer Expires 01/13/2025,,12/30/2024
,ADDTTFDFTFFADADTFAADADAFTDTFATTFDFFAATATAAAAATDDDFFFAFDFTADADADTF,RAC2501-DM06-A-PO,2,393,***************AUTO**MIXED AADC 786,Casey Hamilton,OR CURRENT RESIDENT,2450 Ky Route 3379,,Grethel KY 41631-9064,Rent-A-Center,51 Glynnview Plz,,Prestonsburg,KY,41653-7958,(606) 886-6211,,Offer Expires 01/13/2025,,12/30/2024
,TDTFFTATAFTFTTFFAATTFFTDAATAFATTFFTFATFADDTDFDDFFDFATTDTTATDFDFFF,RAC2501-DM06-A-PO,2,407,***************AUTO**MIXED AADC 786,Samantha Burgess,OR CURRENT RESIDENT,1129 Brown Dr.,,Morganton NC 28655-9640,Rent-A-Center,1247 Burkemont Ave,Ste 20  Magnolia Plaza,Morganton,NC,28655-4541,(828) 433-9305,,Offer Expires 01/13/2025,,12/30/2024
,TAAFTTDDTFTDFTADTDDDAFAATFTFDFTFATAFFTATDTDDFDTDADAFDATFDFTDATTFF,RAC2501-DM06-A-PO,2,409,***************AUTO**MIXED AADC 786,Valerie Foster,OR CURRENT RESIDENT,205 Johnson St. APT. H,,Garner NC 27529-3049,Rent-A-Center,1561 Highway 70,,Garner,NC,27529,(919) 779-2100,,Offer Expires 01/13/2025,,12/30/2024
,FFAFAAFDTDTTFTTFADDTDDTADDDTDTFFDADFTADFADFDDDTTFADDAFTDDFTFFTAAT,RAC2501-DM06-A-PO,2,417,***************AUTO**MIXED AADC 786,Monica Saunders,OR CURRENT RESIDENT,H8,905 Carolina Pines Ave. APT. B,Raleigh NC 27603-7701,Rent-A-Center,1561 Highway 70,,Garner,NC,27529,(919) 779-2100,,Offer Expires 01/13/2025,,12/30/2024
,TDFDTAFFTTDADTDTTDDTATDFFATDFATDDTTTTFFTTAFFTTAADTFAFTTFADDTFADDD,RAC2501-DM06-A-PO,2,431,***************AUTO**MIXED AADC 786,Nicole Dawkins,OR CURRENT RESIDENT,602 Camden St.,,Lilesville NC 28091-6031,Rent-A-Center,722 E Us Highway 74,Ste I,Rockingham,NC,28379-4980,(910) 582-2459,,Offer Expires 01/13/2025,,12/30/2024
,DFFDFFDATTATDDFAAFFADFDFFATTTAADAFDFAATAFTAATFFAFAFAAAFFDAFDDDDAF,RAC2501-DM06-A-PO,2,435,***************AUTO**MIXED AADC 786,Franklin Starnes,OR CURRENT RESIDENT,5206 Hopkins Rd.,,Fort Lawn SC 29714-8623,Rent-A-Center,725 Cherry Rd,Ste 120,Rock Hill,SC,29732-3143,(803) 575-2232,,Offer Expires 01/13/2025,,12/30/2024
,FFFTTTFTADDFFTADTDTFAADFTAATATTTDDTDAFAFAFFFFDDDTTTTATATADTATDTFF,RAC2501-DM06-A-PO,2,436,***************AUTO**MIXED AADC 786,Rachel Staples,OR CURRENT RESIDENT,505 S. Tory Rd.,,Pageland SC 29728-6471,Rent-A-Center,315 N Pearl St,,Pageland,SC,29728-1932,(843) 672-5977,,Offer Expires 01/13/2025,,12/30/2024
,DFAFDDTFDAAATATADTTADDTDDTFDAATFTDTDFFATATFTATAADFAADDDFADDAFDATF,RAC2501-DM06-A-PO,2,437,***************AUTO**MIXED AADC 786,Gloria Chaver,OR CURRENT RESIDENT,1359 Riverview Rd. APT. D,,Rock Hill SC 29732-1439,Rent-A-Center,725 Cherry Rd,Ste 120,Rock Hill,SC,29732-3143,(803) 575-2232,,Offer Expires 01/13/2025,,12/30/2024
,DTDTFDFFFTDDTTFTFFADFTFFTTDFTFDFTDATDDATADADADTTTTFTDTDADTTTDTFAT,RAC2501-DM06-A-PO,2,442,***************AUTO**MIXED AADC 786,Jessica Gonzalez,OR CURRENT RESIDENT,799 Cypress Church Rd.,,Cameron NC 28326-6709,Rent-A-Center,221 Skyland Shopping Center,,Spring Lake,NC,28390,(910) 436-0149,,Offer Expires 01/13/2025,,12/30/2024
,ATDTATATTAATTATTADTFFFATTFTTFAADDTFFAFTTFFDDDADTDDFDAFDATDAAAFAAD,RAC2501-DM06-A-PO,2,444,***************AUTO**MIXED AADC 786,Dakota Dawkins,OR CURRENT RESIDENT,154 Bryson Dr.,,Hamlet NC 28345-7239,Rent-A-Center,722 E Us Highway 74,Ste I,Rockingham,NC,28379-4980,(910) 582-2459,,Offer Expires 01/13/2025,,12/30/2024
,FFFFAFFFAFFAFDTDFTAATFFTTFADFTDAAFFTTTAFTTTTTTAFFDAFAATTATFAATFTD,RAC2501-DM06-A-PO,2,453,***************AUTO**MIXED AADC 786,Effie Snell,OR CURRENT RESIDENT,905 N. Lee St.,,Rockingham NC 28379-3320,Rent-A-Center,722 E Us Highway 74,Ste I,Rockingham,NC,28379-4980,(910) 582-2459,,Offer Expires 01/13/2025,,12/30/2024
,FFADTTDTAATTFDTDADDDFAFTFDATFFFFATAFTFATDDTDTADAFDFADDDDFDDDTDDFF,RAC2501-DM06-A-PO,2,456,***************AUTO**MIXED AADC 786,Shaneequa Reed,OR CURRENT RESIDENT,576 Nash Johnsons Pond Rd.,,Magnolia NC 28453-8900,Rent-A-Center,1407 Sunset Ave,Ste A,Clinton,NC,28328-3844,(910) 592-1473,,Offer Expires 01/13/2025,,12/30/2024
,ADDDFDDDDFDTFATDTFTDTTFDTADDFTDDTTDFTDFDAAFFTDDDFDDDDTAADFTTDADAA,RAC2501-DM06-A-PO,2,491,***************AUTO**MIXED AADC 786,Cierra Tester,OR CURRENT RESIDENT,120 Tabitha Ct. APT. A,,Anderson SC 29625-5066,Rent-A-Center,2817 S. Main Street,,Anderson,SC,29624,(864) 231-6888,,Offer Expires 01/13/2025,,12/30/2024
,DDTAFTDFDATFDFDTFAATFATFTAFTDAFDTTAAFFATTFDTDTDATTFTTAFAAATTTAAAF,RAC2501-DM06-A-PO,2,492,***************AUTO**MIXED AADC 786,McKenzie Ripley,OR CURRENT RESIDENT,505 Palmer St.,,Anderson SC 29626-3555,Rent-A-Center,2817 S. Main Street,,Anderson,SC,29624,(864) 231-6888,,Offer Expires 01/13/2025,,12/30/2024
,DTADTDFFAFTFTAATTTDFTAFFAFDAAFFADADTTTDADTATFATTADFADFFFDAAADAAAD,RAC2501-DM06-A-PO,2,498,***************AUTO**MIXED AADC 786,Tiffany Harland,OR CURRENT RESIDENT,331 Glendale Dr.,,Hartwell GA 30643-1008,Rent-A-Center,131 Walmart Dr,,Hartwell,GA,30643-8435,(706) 521-6979,,Offer Expires 01/13/2025,,12/30/2024
,TAAATDFDFDAFAAFFAFDTTAATATAATDTDTDADFATTDFADFDTTAFDFADFTDTTDAFFTD,RAC2501-DM06-A-PO,2,525,***************AUTO**MIXED AADC 786,Nathaniel Gerido,OR CURRENT RESIDENT,1312 E. 57th St.,,Savannah GA 31404-5406,Rent-A-Center,1900 E Victory Dr,,Savannah,GA,31404-3713,(912) 238-0700,,Offer Expires 01/13/2025,,12/30/2024
,DAFTATTATADDFDFDDFDTFTAFTTFATDFDTDTTDDAADTAADFAATDDFDAATDAADFTFFA,RAC2501-DM06-A-PO,2,526,***************AUTO**MIXED AADC 786,Sandra Davis,OR CURRENT RESIDENT,2106 Gilmore St.,,Waycross GA 31503-1418,Rent-A-Center,808 Memorial Dr,,Waycross,GA,31501-2915,(912) 283-0165,,Offer Expires 01/13/2025,,12/30/2024
,ADTATTFDADTTADADDATADADDADDAAAFTATTADAFFTTTFFFTTAAADFDTTFTATFATTF,RAC2501-DM06-A-PO,2,527,***************AUTO**MIXED AADC 786,Diane Rogers,OR CURRENT RESIDENT,1519 Wynn Ave.,,Douglas GA 31533-2723,Rent-A-Center,1345 Bowens Mill Rd. SeSte 101,,Douglas,GA,31533,(912) 384-1823,,Offer Expires 01/13/2025,,12/30/2024
##,DDATDFFAAAADDAAAATDADAFTTTDDFAFDDAFADTADDDATTDATADFFTTAAFAFTFAAAF,RAC2501-DM06-A-PO,2,528,***************AUTO**MIXED AADC 786,Robert Clark,OR CURRENT RESIDENT,4950 Princely Ave.,,Jacksonville FL 32208-1650,Rent-A-Center,1020 Edgewood Avenue N Unit 6-9,,Jacksonville,FL,32254-3014,(904) 388-5411,,Offer Expires 01/13/2025,,12/30/2024
,FADDFAFDFFDDADFDTTDAAAADADDDTDAFDDATFTAAFAAFDAFAFFTDFDTDFFTDDDFTF,RAC2501-DM06-A-PO,3,529,***************AUTO**MIXED AADC 786,Charmaine Vazquez,OR CURRENT RESIDENT,11016 Biscayne Blvd.,,Jacksonville FL 32218-4710,Rent-A-Center,1016 Dunn Avenue Suite 140,,Jacksonville,FL,32218-4830,(904) 768-8888,,Offer Expires 01/13/2025,,12/30/2024
,TAAFATAAFTAFAFFFAAFDDDTTTATATTDAFDFFTDFTFTAFTTTFDAAFATDFFATTTFDDF,RAC2501-DM06-A-PO,3,530,***************AUTO**MIXED AADC 786,Ismael R Suarez,OR CURRENT RESIDENT,7032 Old Plank Rd.,,Jacksonville FL 32254-2753,Rent-A-Center,5845 University Blvd W,,Jacksonville,FL,32216,(904) 731-8910,,Offer Expires 01/13/2025,,12/30/2024
,ATFFTFDATAFFDDTDTDDADADATADADAAAATFDDTTDFFFATTATDTTTADDFTTDTDTDAA,RAC2501-DM06-A-PO,3,531,***************AUTO**MIXED AADC 786,Alvara Welch,OR CURRENT RESIDENT,622 S.W. 2nd Ter.,,Gainesville FL 32601-6747,Rent-A-Center,1200 N Main St,,Gainesville,FL,32601-4370,(352) 372-5555,,Offer Expires 01/13/2025,,12/30/2024
,DTDTDTDTTTAFDATAAFAAAAFADTAAAFAAADTTTTDAFAFDTAFAAFTTDAAATADFTAFAF,RAC2501-DM06-A-PO,3,532,***************AUTO**MIXED AADC 786,Darius Berry,OR CURRENT RESIDENT,2026 N.W. 14th St.,,Ocala FL 34475-4960,Rent-A-Center,3131 Sw College Rd,Ste 209,Ocala,FL,34474-4422,(352) 854-0606,,Offer Expires 01/13/2025,,12/30/2024
,FDFTTFAADAADFTAADDFAAFDFTFFTFDATTFDDTDDAATAFFDTATFFATDTDAFATAFFFF,RAC2501-DM06-A-PO,3,533,***************AUTO**MIXED AADC 786,Edna C Anderson,OR CURRENT RESIDENT,2310 Tina Dr.,,Tallahassee FL 32301-3269,Rent-A-Center,2545 S Adams St,,Tallahassee,FL,32301-6326,(850) 878-2137,,Offer Expires 01/13/2025,,12/30/2024
,DTDFATDAFAFFDAFTADAAFFDDTTDAAFTAATADDFDFAADAFAFDFATTTTTFAATTDTTAT,RAC2501-DM06-A-PO,3,534,***************AUTO**MIXED AADC 786,Dorthy Alexander,OR CURRENT RESIDENT,2115 Old Bainbridge Rd.,,Tallahassee FL 32303-3904,Rent-A-Center,1964 W Tennessee St,Ste 15,Tallahassee,FL,32304-3238,(850) 222-7564,,Offer Expires 01/13/2025,,12/30/2024
,TTTADDDTFTDTFADATTFFFTTFTAADDTAFFFTFAFDADDTDDAFADFTAFTDDDFFADFDAT,RAC2501-DM06-A-PO,3,535,***************AUTO**MIXED AADC 786,Beverly Butler,OR CURRENT RESIDENT,816 Briandav St.,,Tallahassee FL 32305-7508,Rent-A-Center,2000 Crawfordville Hwy,Ste C,Crawfordville,FL,32327-1090,(850) 219-0470,,Offer Expires 01/13/2025,,12/30/2024
,DFDATFFTFFFAFFADDDTATAFFTFTAADADADDTFFTAADFDAFFADTTADADTAAFTAFAFT,RAC2501-DM06-A-PO,3,536,***************AUTO**MIXED AADC 786,Leland Jones,OR CURRENT RESIDENT,B,1909 Wax Myrtle Ct.,Tallahassee FL 32305-8157,Rent-A-Center,2545 S Adams St,,Tallahassee,FL,32301-6326,(850) 878-2137,,Offer Expires 01/13/2025,,12/30/2024
,DDATAADTFDAFFDDAAFDDFDTDADATDAFFDAFDDTDFTDDDFFTTTDFTAAFTDFFDTAAAA,RAC2501-DM06-A-PO,3,537,***************AUTO**MIXED AADC 786,Lena Miller,OR CURRENT RESIDENT,1093 Culbreth Rd.,,Graceville FL 32440-7223,Rent-A-Center,1377 Brickyard Road,Ste 1a,Chipley,FL,32428-2455,(850) 638-1153,,Offer Expires 01/13/2025,,12/30/2024
,TTDDDTAFTTADFAATTATFFTDFTAAATFFTDATDFDFDTAATFDTTDAADTTADDAFDATTFD,RAC2501-DM06-A-PO,3,538,***************AUTO**MIXED AADC 786,Lanetta Charles,OR CURRENT RESIDENT,1602 Montana Ave.,,Lynn Haven FL 32444-3669,Rent-A-Center,831 N. Tyndall Pkwy,,Callaway,FL,32404,(850) 763-4400,,Offer Expires 01/13/2025,,12/30/2024
,FFDTDTTATFAAFAFFTFFAFADAFFADATFTTFATATFAFAAAFFTDAFAFTAAADFTFTATDD,RAC2501-DM06-A-PO,3,543,***************AUTO**MIXED AADC 786,Jessica Haldeman,OR CURRENT RESIDENT,Apt 1233 Apt 1233,7774 Navarre Pkwy. APT. 1233,Navarre FL 32566-5527,Rent-A-Center,6544 Caroline St,,Milton,FL,32570-4778,(850) 983-7800,,Offer Expires 01/13/2025,,12/30/2024
,DDFDDFTDAAAFDAFTTADADFFFDFFTFADAATDDDDDDAATDTDDDTADFTATFTAFTDAFFA,RAC2501-DM06-A-PO,3,544,***************AUTO**MIXED AADC 786,Belinda Kemp,OR CURRENT RESIDENT,5354 Christiancy Ave.,,Port Orange FL 32127-5509,Rent-A-Center,3999a-4001a South Nova Road,,Port Orange,FL,32127,(386) 760-7777,,Offer Expires 01/13/2025,,12/30/2024
,FDTDDFTADATTTDFTFFAAFFTFFAFTTADTDADDFAAFFDTDDDATADDDAFDDDFADTAFAD,RAC2501-DM06-A-PO,3,545,***************AUTO**MIXED AADC 786,Aaron C Foster,OR CURRENT RESIDENT,1873 Forough Cir.,,Port Orange FL 32128-6026,Rent-A-Center,3999a-4001a South Nova Road,,Port Orange,FL,32127,(386) 760-7777,,Offer Expires 01/13/2025,,12/30/2024
,ATDFADFATDATDTFATAAAFATFFTTTFFATDTFAAFFFAAFFFATTFDTTFFDTTDAFTTDDD,RAC2501-DM06-A-PO,3,546,***************AUTO**MIXED AADC 786,Adolfo Alejo,OR CURRENT RESIDENT,122 Katrina St.,,De Leon Springs FL 32130-3008,Rent-A-Center,2613 S Woodland Blvd,,Deland,FL,32720-8641,(386) 738-3225,,Offer Expires 01/13/2025,,12/30/2024
,TATAAFAAFTDAFTDDFATFDFTTDFADATTTAFDFFDATATFDTATAFDDDFDDFADDDDFTAD,RAC2501-DM06-A-PO,3,549,***************AUTO**MIXED AADC 786,Josue Sierra Cabrera,OR CURRENT RESIDENT,254 Clara Vista St.,,Debary FL 32713-3876,Rent-A-Center,834 Saxon Blvd,Ste 20,Orange City,FL,32763-8207,(386) 774-5100,,Offer Expires 01/13/2025,,12/30/2024
,TFATFFADTFFFFAAFDDDADDFTFDFDDTFADDFADFATFFFATDDAFFADFFFFDTFDADTTF,RAC2501-DM06-A-PO,3,550,***************AUTO**MIXED AADC 786,Alisha Hunt,OR CURRENT RESIDENT,1480 W. Wellington Dr.,,Deltona FL 32725-5649,Rent-A-Center,834 Saxon Blvd,Ste 20,Orange City,FL,32763-8207,(386) 774-5100,,Offer Expires 01/13/2025,,12/30/2024
,DFDFDTFATAFDTDDTTDTTFATFFAADTTFDTDDTAADDTFDTFDTDTDADDFFTDFFFFAFDA,RAC2501-DM06-A-PO,3,577,***************AUTO**MIXED AADC 786,Nicolas Lopez,OR CURRENT RESIDENT,1852 S.W. Cecelia Ln.,,Port Saint Lucie FL 34953-1605,Rent-A-Center,10117 S Federal Hwy,,Port Saint Lucie,FL,34952-5608,(772) 335-3185,,Offer Expires 01/13/2025,,12/30/2024
,TTFFTTDDAAFTDDFAFFAFFTDTTAAFAAAAFFDATDTATATATFATDTTFTFTFTDATTADFT,RAC2501-DM06-A-PO,3,583,***************AUTO**MIXED AADC 786,Alexandria Barnhart,OR CURRENT RESIDENT,2519 Cartegena Ave.,,Fort Myers FL 33905-2305,Rent-A-Center,1209 Homestead Rd N,,Lehigh Acres,FL,33936-6062,(239) 369-7368,,Offer Expires 01/13/2025,,12/30/2024
,AATTFFTADDFTFFTDATDADAATATFTDDTDTTATFFDDTTTADFTADFFDAAFDDATTFDATF,RAC2501-DM06-A-PO,3,590,***************AUTO**MIXED AADC 786,Amanda Brailsford,OR CURRENT RESIDENT,3250 Bayou Bay Dr.,,Lakeland FL 33811-2842,Rent-A-Center,1342 Ariana St,,Lakeland,FL,33803-1817,(863) 680-9922,,Offer Expires 01/13/2025,,12/30/2024
,ADDATFAATDTTAFDFDAAAFTTDDFAAADFAAATTFFATFTDFTTTAFADTFTADAADFAAAAT,RAC2501-DM06-A-PO,3,636,***************AUTO**MIXED AADC 786,Troy Jones,OR CURRENT RESIDENT,530 Highway 68,,Crossville TN 38555-2845,Rent-A-Center,424 Obed Plz,,Crossville,TN,38555-6732,(931) 707-8900,,Offer Expires 01/13/2025,,12/30/2024
,DFAADTTDTTDFFFFFTTDTTTAFTDTDTFAFAFTAAADDDFDATDAFAFTAATATATAADTAAD,RAC2501-DM06-A-PO,3,649,***************AUTO**MIXED AADC 786,Cynthia Y Hill,OR CURRENT RESIDENT,1705 4th Ave.,,Manchester TN 37355-2605,Rent-A-Center,922 Hillsboro Blvd,,Manchester,TN,37355-2000,(931) 728-1300,,Offer Expires 01/13/2025,,12/30/2024
,FFDDDFFADFTDAAADTADFTDTDTDFDFDFTFAFFDDFTFDFAATAADATTTFTDADTADAAAA,RAC2501-DM06-A-PO,3,650,***************AUTO**MIXED AADC 786,Elaine Haggard,OR CURRENT RESIDENT,3640 Ragsdale Rd.,,Manchester TN 37355-5871,Rent-A-Center,922 Hillsboro Blvd,,Manchester,TN,37355-2000,(931) 728-1300,,Offer Expires 01/13/2025,,12/30/2024
,DDTTFTTFTAAFTFATDDDTAFAFTTDTFFFAFFTTFTFDAFFDFATTADAAAFDADTDADDAAD,RAC2501-DM06-A-PO,3,651,***************AUTO**MIXED AADC 786,Joshua Singleton,OR CURRENT RESIDENT,551 Shady Grove Rd.,,Manchester TN 37355-6672,Rent-A-Center,922 Hillsboro Blvd,,Manchester,TN,37355-2000,(931) 728-1300,,Offer Expires 01/13/2025,,12/30/2024
,AAFAATAADADDATTDFADTTDFDAFDAFAFTFDDDATDDDTDFTDDADFFFFDDDTDTFTADAT,RAC2501-DM06-A-PO,3,652,***************AUTO**MIXED AADC 786,Ludim Rodas,OR CURRENT RESIDENT,328 Rogers Dr.,,Manchester TN 37355-7483,Rent-A-Center,922 Hillsboro Blvd,,Manchester,TN,37355-2000,(931) 728-1300,,Offer Expires 01/13/2025,,12/30/2024
,FDFAADAFAAAADDDTFDDTTTAAAAAFTTAADDFDTFFTFTATADAFAFFDDDFFAFDDFDDTF,RAC2501-DM06-A-PO,3,654,***************AUTO**MIXED AADC 786,Deanna Barreth,OR CURRENT RESIDENT,1115 Rose Ave. S.E.,,Norton VA 24273-2837,Rent-A-Center,151 Ridgeview Rd Sw,,Wise,VA,24293-4619,(276) 679-4848,,Offer Expires 01/13/2025,,12/30/2024
,DDDFDDDFDFTFDAAFATDTAFADFFTDTTFTFTAATTTDTFAAAFTFTDTFAADADAAATDADT,RAC2501-DM06-A-PO,3,655,***************AUTO**MIXED AADC 786,Mack C Fields,OR CURRENT RESIDENT,6130 W. Norton Rd.,,Norton VA 24273-4518,Rent-A-Center,1941 Neeley Rd,Ste 101,Big Stone Gap,VA,24219-4483,(276) 523-7337,,Offer Expires 01/13/2025,,12/30/2024
,DTDFTFAAFTFDTTATADTATTFAFFTFFTFFAFDFFDATDAFTTTAATFDTTATAFTAFTFFTT,RAC2501-DM06-A-PO,3,656,***************AUTO**MIXED AADC 786,Leslie Mullins,OR CURRENT RESIDENT,6815 Pole Bridge Rd.,,Wise VA 24293-4731,Rent-A-Center,151 Ridgeview Rd Sw,,Wise,VA,24293-4619,(276) 679-4848,,Offer Expires 01/13/2025,,12/30/2024
,FDFTDATTAATDTDTDTFDADTDFFDATAATDDDATTTFFFTTAFTFTTTAFTTTFTFDDTDATD,RAC2501-DM06-A-PO,3,663,***************AUTO**MIXED AADC 786,Roy Phillips,OR CURRENT RESIDENT,204 Ritter Ln.,,Helenwood TN 37755-5302,Rent-A-Center,2221 Jacksboro Pike,Ste A3,Lafollette,TN,37766-3004,(423) 907-0088,,Offer Expires 01/13/2025,,12/30/2024
,FDFTFDTATDTFAADTFFATAFAATFADDDTDFAADTTATTDFAFTFDAFFDAFDFDDDTDTTAA,RAC2501-DM06-A-PO,3,669,***************AUTO**MIXED AADC 786,Greg Vaught,OR CURRENT RESIDENT,331 Vermont Ave.,,Oak Ridge TN 37830-6459,Rent-A-Center,312 S Illinois Ave,,Oak Ridge,TN,37830-6740,(865) 482-9600,,Offer Expires 01/13/2025,,12/30/2024
,TAAFADATFDAAAFDTTTAAADTADAFDFATFTDDFAFTFDFAATAFAFTDDFTTTTDTADAFTD,RAC2501-DM06-A-PO,3,670,***************AUTO**MIXED AADC 786,Shanel Thomas,OR CURRENT RESIDENT,124 Trenton Dr.,,Oak Ridge TN 37830-6614,Rent-A-Center,312 S Illinois Ave,,Oak Ridge,TN,37830-6740,(865) 482-9600,,Offer Expires 01/13/2025,,12/30/2024
,ADTDDDTTTAFTFFAATFTAFTDTTTFDFDFTTATDATFTFFTFFDDTADDDDTTAAFTADTATA,RAC2501-DM06-A-PO,3,671,***************AUTO**MIXED AADC 786,Pamela Hunter,OR CURRENT RESIDENT,574 Windrock Rd.,,Oliver Springs TN 37840-2211,Rent-A-Center,312 S Illinois Ave,,Oak Ridge,TN,37830-6740,(865) 482-9600,,Offer Expires 01/13/2025,,12/30/2024
,TDFATAAAATFFATADTTAAFFFFDFATTFFTFAADFAFFAAADADTFFFAFFFTDAATAFDAFT,RAC2501-DM06-A-PO,3,676,***************AUTO**MIXED AADC 786,Roger Hoskins,OR CURRENT RESIDENT,PO Box 1184,,Manchester KY 40962-4184,Rent-A-Center,301 Manchester Square Shpg Ctr,,Manchester,KY,40962-8700,(606) 598-6683,,Offer Expires 01/13/2025,,12/30/2024
,TTDDTFFFADFTDFAAFFFAADADTDAFFTTDDFDFAFATDAADAATTTAAFDDFFTDDDAADAT,RAC2501-DM06-A-PO,3,677,***************AUTO**MIXED AADC 786,Delora Turner,OR CURRENT RESIDENT,140 Dogwood Ln.,,Hazard KY 41701-1118,Rent-A-Center,66 Daniel Boone Plaza,,Hazard,KY,41701-5334,(606) 436-0106,,Offer Expires 01/13/2025,,12/30/2024
,DAFFTTFAFAATFFDDTDAFDFDFTATTFAAAATDTDATFADFADAAFFFFTAFATATTTAFTDF,RAC2501-DM06-A-PO,3,678,***************AUTO**MIXED AADC 786,Randall Burton,OR CURRENT RESIDENT,3961 Upper Second Creek Rd.,,Hazard KY 41701-8219,Rent-A-Center,66 Daniel Boone Plaza,,Hazard,KY,41701-5334,(606) 436-0106,,Offer Expires 01/13/2025,,12/30/2024
,AAAAFTTDDTADDDTFDAFTTATTATTDFDTDTDDDDDDTFDDTFADTATADDDDADFDDTAAAF,RAC2501-DM06-A-PO,3,679,***************AUTO**MIXED AADC 786,Judy Crum,OR CURRENT RESIDENT,77 Butcher Knife Rd.,,Topmost KY 41862-9031,Rent-A-Center,51 Glynnview Plz,,Prestonsburg,KY,41653-7958,(606) 886-6211,,Offer Expires 01/13/2025,,12/30/2024
,TAFTTATTFFAAFATDAFDTTDDDTTAFFTFTFFFFTAFTTATTTFDATAADFDFTTFFDTADTT,RAC2501-DM06-A-PO,3,680,***************AUTO**MIXED AADC 786,Rosa Stephens,OR CURRENT RESIDENT,160 J E Barnett Rd.,,Parkers Lake KY 42634-8203,Rent-A-Center,370 S Highway 27,Ste 10,Somerset,KY,42501-2774,(606) 678-0013,,Offer Expires 01/13/2025,,12/30/2024
,DDFTATTFAFDAADDATAFFDDTTTATFTFFFTDDFTDADFDAFFDFTFTDFADAAFTTFDDFDT,RAC2501-DM06-A-PO,3,683,***************AUTO**MIXED AADC 786,Josilyn McGarity,OR CURRENT RESIDENT,397 Tatlock Cir.,,Covington TN 38019-5653,Rent-A-Center,839 Hwy 51 North,,Covington,TN,38019-1701,(901) 475-1699,,Offer Expires 01/13/2025,,12/30/2024
,FFFTAFDDDDFDTAAFATATFFFFDFATATAAAADTFATAATDAAATAAADDTFFDFFTADTFTA,RAC2501-DM06-A-PO,3,684,***************AUTO**MIXED AADC 786,Richard Rhoads,OR CURRENT RESIDENT,806 E. Tigrett Street Ext.,,Halls TN 38040-5112,Rent-A-Center,337 E Main St,,Brownsville,TN,38012-4111,(731) 772-2125,,Offer Expires 01/13/2025,,12/30/2024
,FTDATDTTFADADATTDADDFFDTFDDAFTFFTTFTTADTADDFDFFDTTFAADDFDAFDAAFFF,RAC2501-DM06-A-PO,3,685,***************AUTO**MIXED AADC 786,Hattie Champion,OR CURRENT RESIDENT,405 Fayette Corner Dr.,,Somerville TN 38068-4355,Rent-A-Center,337 E Main St,,Brownsville,TN,38012-4111,(731) 772-2125,,Offer Expires 01/13/2025,,12/30/2024
,TAFAAAFTAAFDTDATDAFADFADDDTTDDTTDDATTAAATATFTAFAAFDAADFDFDTDAFFDT,RAC2501-DM06-A-PO,3,694,***************AUTO**MIXED AADC 786,Teresa Edgin,OR CURRENT RESIDENT,3143 Lee Road 215,,Marianna AR 72360-8565,Rent-A-Center,720 N. Sebastian St.,,West Helena,AR,72390-1844,(870) 572-0202,,Offer Expires 01/13/2025,,12/30/2024
,DFFADDAAFFAAFADTTDDDTFTFTAFDATDDFTAFDDFFFADADTFFATFDADAAADDDDFTTD,RAC2501-DM06-A-PO,3,695,***************AUTO**MIXED AADC 786,James Mays,OR CURRENT RESIDENT,603 Davidson St.,,Manila AR 72442-8338,Rent-A-Center,3710 E Main St,Ste F,Blytheville,AR,72315-6882,(870) 762-0600,,Offer Expires 01/13/2025,,12/30/2024
,DDDFTAAFFAFATFDDFAFDDFDFDDADADFDDTDADDFFDDTTFAADTDDDAAAATFFFFDDTA,RAC2501-DM06-A-PO,3,703,***************AUTO**MIXED AADC 786,Anita Jackson,OR CURRENT RESIDENT,25 Walton Rd.,,Irvine KY 40336-9615,Rent-A-Center,674 Eastern Bypass,,Richmond,KY,40475,(859) 623-5453,,Offer Expires 01/13/2025,,12/30/2024
,TDDTFDFFDTDDFAADATDADADFTAAFTDFDTDDDDFAFDDDTTTDFFDFFFFADDTADFFDAD,RAC2501-DM06-A-PO,3,704,***************AUTO**MIXED AADC 786,Roy Phillips,OR CURRENT RESIDENT,311 E. Court St.,,Lawrenceburg KY 40342-1115,Rent-A-Center,1264 Anderson Crossing Dr,,Lawrenceburg,KY,40342-8021,(502) 839-6565,,Offer Expires 01/13/2025,,12/30/2024
,DFDFADDFFFFAFTTTFATDATDFADFAFFDFFDDDFAFTDDFATFTATFTATTTDFAAAFTDDT,RAC2501-DM06-A-PO,3,705,***************AUTO**MIXED AADC 786,Pam Marlow,OR CURRENT RESIDENT,1203 Carey Mill Rd.,,Lawrenceburg KY 40342-9331,Rent-A-Center,1264 Anderson Crossing Dr,,Lawrenceburg,KY,40342-8021,(502) 839-6565,,Offer Expires 01/13/2025,,12/30/2024
,FTDDAFTTAAATTDTATDDTFAFFADATDDAFTTATDDFFDDTFFTFTADDTADADTTDDFFFAF,RAC2501-DM06-A-PO,3,709,***************AUTO**MIXED AADC 786,Vince Vargas,OR CURRENT RESIDENT,711 Paint Lick Rd.,,Berea KY 40403-8117,Rent-A-Center,674 Eastern Bypass,,Richmond,KY,40475,(859) 623-5453,,Offer Expires 01/13/2025,,12/30/2024
,FTDFFFAAFDTTDFAAATDFAADAAFFDFTDFTTTFTTDFDFFFDFFDFFDDFFDTAADDDFFFF,RAC2501-DM06-A-PO,3,711,***************AUTO**MIXED AADC 786,Mona Messer,OR CURRENT RESIDENT,1405 Roberts Ct. APT. 143,,Mc Kee KY 40447-9407,Rent-A-Center,301 Manchester Square Shpg Ctr,,Manchester,KY,40962-8700,(606) 598-6683,,Offer Expires 01/13/2025,,12/30/2024
,FFFDATDDDADAAFDAFFTFFAFFFTFTDFFADAAATDDATDATAATFTADDFTDTAFDDFTTDF,RAC2501-DM06-A-PO,3,712,***************AUTO**MIXED AADC 786,Crystal Lucio,OR CURRENT RESIDENT,407 Turpin Dr.,,Richmond KY 40475-1205,Rent-A-Center,674 Eastern Bypass,,Richmond,KY,40475,(859) 623-5453,,Offer Expires 01/13/2025,,12/30/2024
,TTTTDFDTTTTTDTFFDATFDDTFTDDDDDTDDFATTAAFDTATFDADADFADTFFDFDDDFDFT,RAC2501-DM06-A-PO,3,713,***************AUTO**MIXED AADC 786,Sandra Hale,OR CURRENT RESIDENT,202 Evansdale Ave. APT. 1,,Richmond KY 40475-1839,Rent-A-Center,674 Eastern Bypass,,Richmond,KY,40475,(859) 623-5453,,Offer Expires 01/13/2025,,12/30/2024
,DDDTTDAFFAAFTFFTFDTDAADFDADAFDTTAATDAATFTAFTDDFTAAFDFATDADFDFFTDF,RAC2501-DM06-A-PO,3,714,***************AUTO**MIXED AADC 786,Arkie Rogers,OR CURRENT RESIDENT,109 Elaine Ave.,,Richmond KY 40475-9036,Rent-A-Center,674 Eastern Bypass,,Richmond,KY,40475,(859) 623-5453,,Offer Expires 01/13/2025,,12/30/2024
,ATFDDFTATTDDDTAAFDDDFDFFFDAATTFFDTDDATDFFTDADDFTFAFDADTDTFTFADFAA,RAC2501-DM06-A-PO,3,715,***************AUTO**MIXED AADC 786,Sharon K Simmons,OR CURRENT RESIDENT,1113 Dunbarton Ln.,,Lexington KY 40502-3823,Rent-A-Center,1264 Anderson Crossing Dr,,Lawrenceburg,KY,40342-8021,(502) 839-6565,,Offer Expires 01/13/2025,,12/30/2024
,AFTFFAFTAFDDFDDDDTFADDFDDDDADATAAATFFADDFTTTFFFAAFTDDATAAFDTFATAF,RAC2501-DM06-A-PO,3,716,***************AUTO**MIXED AADC 786,Mackenzie Warner,OR CURRENT RESIDENT,1134 Highway 11 S.,,Beattyville KY 41311-7534,Rent-A-Center,1550 Highway 15 S,Ste 70,Jackson,KY,41339-0629,(606) 693-0700,,Offer Expires 01/13/2025,,12/30/2024
,ADTFTAFDAFATFFAFFADTFTATTAATFTADTDFDTDADDFTDDDFDFAFATDADFFDADFDFF,RAC2501-DM06-A-PO,3,851,***************AUTO**MIXED AADC 786,Erik Foote,OR CURRENT RESIDENT,3727 Pinoak St.,,Clarkston MI 48348-1383,Rent-A-Center,487 Elizabeth Lake Rd,,Waterford,MI,48328-3302,(248) 706-2100,,Offer Expires 01/13/2025,,12/30/2024
,DDDDDAFDAADTADTTDDDAFATFTAAAAFDAFFTFTTDADDDFFAFDDTDFDATAFTDDADFFD,RAC2501-DM06-A-PO,3,852,***************AUTO**MIXED AADC 786,Susann Shagenakeenan,OR CURRENT RESIDENT,10124 Frances Rd.,,Flushing MI 48433-9200,Rent-A-Center,7218 N Saginaw Rd,,Mount Morris,MI,48458-2131,(810) 686-7160,,Offer Expires 01/13/2025,,12/30/2024
,FFTDDATTDAFATTAFFFTDFFFFFADFDDATTFTTATFFDDFDFTTTFTFFTFDDDTAADDFTT,RAC2501-DM06-A-PO,3,883,***************AUTO**MIXED AADC 786,Ryan Postle,OR CURRENT RESIDENT,16430 Park Lake Rd. Lot 29,,East Lansing MI 48823-9457,Rent-A-Center,674 Eastern Bypass,,Richmond,KY,40475,(859) 623-5453,,Offer Expires 01/13/2025,,12/30/2024
,FFTADTATFTTDDTADDFDAAAAAFTATFTDFTFDTTTTDATTDFTFDFFFAATADFFAAAFTAD,RAC2501-DM06-A-PO,3,888,***************AUTO**MIXED AADC 786,Otia Jenkins,OR CURRENT RESIDENT,5561 S. Mlk Blvd.,,Lansing MI 48911-3564,Rent-A-Center,721 N Waverly Rd,,Lansing,MI,48917-2242,(517) 327-2100,,Offer Expires 01/13/2025,,12/30/2024
,AAAAFAADTDFDADTATFFFADFTAFFFATAFAAAFFTDDTATFTDATDFTTDFFTAFDFAFDAD,RAC2501-DM06-A-PO,4,1126,***************AUTO**MIXED AADC 786,April Price,OR CURRENT RESIDENT,302 E. Lanham St.,,Streetman TX 75859-8118,Rent-A-Center,842 W 7th Ave,Ste A,Corsicana,TX,75110-6370,(903) 874-5611,,Offer Expires 01/13/2025,,12/30/2024
,ADTFFTDFFADFAATTTAAATDAAFAAFDDFFDADADTAFAFDADADTFFAFADTTATFAAFFTF,RAC2501-DM06-A-PO,4,1127,***************AUTO**MIXED AADC 786,Albertina Vasquez,OR CURRENT RESIDENT,413 Ash St.,,Teague TX 75860-1113,Rent-A-Center,817 E Milam St,,Mexia,TX,76667-2447,(254) 472-0935,,Offer Expires 01/13/2025,,12/30/2024
,DTFFDFTAADFFFTAFDFFDDTTFDFADAAAAAAFTDTTTFFAFTFATAFAAFDTTDFFTAADDA,RAC2501-DM06-A-PO,4,1128,***************AUTO**MIXED AADC 786,Debra Slay,OR CURRENT RESIDENT,1300 E. 6th Ave.,,Corsicana TX 75110-5609,Rent-A-Center,842 W 7th Ave,Ste A,Corsicana,TX,75110-6370,(903) 874-5611,,Offer Expires 01/13/2025,,12/30/2024
,DDTDTDFDAFDAATAFDTFFDATDATFDDFDDATADFDFTTFAFATTTFTDFAFADAFDFDTDTT,RAC2501-DM06-A-PO,4,1129,***************AUTO**MIXED AADC 786,Nina Saldana,OR CURRENT RESIDENT,1506 W. 11th Ave.,,Corsicana TX 75110-6111,Rent-A-Center,842 W 7th Ave,Ste A,Corsicana,TX,75110-6370,(903) 874-5611,,Offer Expires 01/13/2025,,12/30/2024
,FATDATFTFAAFTDFATFDDADFTDFDFFDTTTDDFFADDDTDFDFFFAAFDTTFFFAAAAFADD,RAC2501-DM06-A-PO,4,1132,***************AUTO**MIXED AADC 786,Lucina Villegas,OR CURRENT RESIDENT,610 S. Owens St.,,Ennis TX 75119-5800,Rent-A-Center,212 W Ennis Ave,,Ennis,TX,75119-4044,(972) 875-3600,,Offer Expires 01/13/2025,,12/30/2024
,AFTFDATDAAFATDFTFDADDTTDTDTFDAAFDTFATTTAFDFTTDAFDFDDFTTAFDTAFDDFF,RAC2501-DM06-A-PO,4,1133,***************AUTO**MIXED AADC 786,Kenney Edwardsen,OR CURRENT RESIDENT,5869 County Road 102,,Kaufman TX 75142-6927,Rent-A-Center,3250 Us Hwy 175,Ste B,Kaufman,TX,75142,(972) 932-4317,,Offer Expires 01/13/2025,,12/30/2024
,TDDADFDAATAFFFDDDTFFTADTFATADFADTTDDAAFTTFFDTDADTFDADFDDFFTATATFT,RAC2501-DM06-A-PO,4,1135,***************AUTO**MIXED AADC 786,Willie F Flatt,OR CURRENT RESIDENT,171 Vz County Road 2706,,Mabank TX 75147-5941,Rent-A-Center,3250 Us Hwy 175,Ste B,Kaufman,TX,75142,(972) 932-4317,,Offer Expires 01/13/2025,,12/30/2024
,FDFTFFFFDFTTFTFDTADDFTAATFDAFTFFTFAAATFTDDFADDAADTDFFATTFTDDFTAFD,RAC2501-DM06-A-PO,4,1161,***************AUTO**MIXED AADC 786,Tomas Salazar,OR CURRENT RESIDENT,179 Fm 3119,,Mexia TX 76667-4400,Rent-A-Center,817 E Milam St,,Mexia,TX,76667-2447,(254) 472-0935,,Offer Expires 01/13/2025,,12/30/2024
,FFFFDTTDFAFFTADAAATDFDFATFTAFFTATTTFFFTDTAAAADTDADFDDTFTFFDTADDDD,RAC2501-DM06-A-PO,4,1163,***************AUTO**MIXED AADC 786,Donald Hicks,OR CURRENT RESIDENT,70 Hawthorne Rd.,,New Waverly TX 77358-3832,Rent-A-Center,817 E Milam St,,Mexia,TX,76667-2447,(254) 472-0935,,Offer Expires 01/13/2025,,12/30/2024
,DAATFADATTATTFTFFADFTFAFAFADATTATDAADDTFDATDAAFTDDADAFFDDADFTFAFT,RAC2501-DM06-A-PO,4,1203,***************AUTO**MIXED AADC 786,Angelina Alonzo,OR CURRENT RESIDENT,518 N. Adams St.,,Alice TX 78332-4622,Rent-A-Center,1716 E Main St,,Alice,TX,78332-4048,(361) 664-8888,,Offer Expires 01/13/2025,,12/30/2024
,TTTTTDFDAAAAATATFATAATDFFTTTDFDTFAATATDAAFADFDFAADFATDDFTDFFTTDAA,RAC2501-DM06-A-PO,4,1204,***************AUTO**MIXED AADC 786,Romaldo Gaona,OR CURRENT RESIDENT,3150 Peachtree St. APT. 210,,Corpus Christi TX 78410-2536,Rent-A-Center,4101 Hwy 77,Ste M7,Corpus Christi,TX,78410-4545,(361) 241-1100,,Offer Expires 01/13/2025,,12/30/2024
,TTADFFTDFDFTATAAADTATTAFTDTTDFDFFADADDDDDDFDDFDFFFFTDDAAFFDDTFDTD,RAC2501-DM06-A-PO,4,1227,***************AUTO**MIXED AADC 786,Keisha Smitherman,OR CURRENT RESIDENT,2116 N. Avenue L Unit B,,Lubbock TX 79403-1189,Rent-A-Center,2713 50th St,,Lubbock,TX,79413-4321,(806) 793-0495,,Offer Expires 01/13/2025,,12/30/2024
,DFAAFTTDDTATTTDTFATDADAAFTFDADDAFADFDDATATTDATDAATFDFAAATDTTDDDTD,RAC2501-DM06-A-PO,4,1228,***************AUTO**MIXED AADC 786,Linda C Phelps,OR CURRENT RESIDENT,1321 E. 25th St.,,Lubbock TX 79404-1223,Rent-A-Center,2516 34th St,,Lubbock,TX,79410-3518,(806) 747-7368,,Offer Expires 01/13/2025,,12/30/2024
,ATFTAFFDDFDDFDFATTDDTATTTAFTDAFTTFADFFADAFDADFTAATADFFFADATFATFTF,RAC2501-DM06-A-PO,4,1231,***************AUTO**MIXED AADC 786,Leonel R Hinojos,OR CURRENT RESIDENT,722 W. Cielo Dr.,,Hobbs NM 88240-2207,Rent-A-Center,2404 N Grimes St,,Hobbs,NM,88240-2125,(575) 392-2669,,Offer Expires 01/13/2025,,12/30/2024
,AFDAFTTFTFFATFAFDFTDATFTDDFADDTATADDFDDTFAFTTATTFAFAADFTAADDDFDAF,RAC2501-DM06-A-PO,4,1232,***************AUTO**MIXED AADC 786,Kalynn Gonzales,OR CURRENT RESIDENT,2014 N. Mobile St.,,Hobbs NM 88240-2752,Rent-A-Center,2404 N Grimes St,,Hobbs,NM,88240-2125,(575) 392-2669,,Offer Expires 01/13/2025,,12/30/2024
,TFFTATDTFAFAAAADDTTDDDAADDFDFTTTFDTTFDTAAADADDAAFFADAFAATATTTDFFA,RAC2501-DM06-A-PO,4,1233,***************AUTO**MIXED AADC 786,Andy Pinon,OR CURRENT RESIDENT,1013 W. Hollis Dr.,,Hobbs NM 88240-3712,Rent-A-Center,2404 N Grimes St,,Hobbs,NM,88240-2125,(575) 392-2669,,Offer Expires 01/13/2025,,12/30/2024
,ATATDDDAATFDDTFADAFDADADTFFAFFAADTATFDTDTDATATATFFDFFFFTADTATTDFF,RAC2501-DM06-A-PO,4,1234,***************AUTO**MIXED AADC 786,Pete Alvarado,OR CURRENT RESIDENT,3611 Monument Rd.,,Hobbs NM 88240-8519,Rent-A-Center,2404 N Grimes St,,Hobbs,NM,88240-2125,(575) 392-2669,,Offer Expires 01/13/2025,,12/30/2024
,FTDFDAAAAADTFTFATDTADADTFFATATDFFDFTATAATAFAFTAFDDDTTATDAAFTDFFFA,RAC2501-DM06-A-PO,4,1236,***************AUTO**MIXED AADC 786,Jose A Leyva,OR CURRENT RESIDENT,824 Oak,,Merkel TX 79536-7220,Rent-A-Center,1206 N Mockingbird Ln,,Abilene,TX,79603-4706,(325) 695-0280,,Offer Expires 01/13/2025,,12/30/2024
,FFAFFFTATADTTTTFATFFFATADTTFAATTTADADTTFATTDTFDDDTFFAAFADDATDADDT,RAC2501-DM06-A-PO,4,1237,***************AUTO**MIXED AADC 786,Frances A Alvarado,OR CURRENT RESIDENT,4342 Capitol Ave. APT. B,,Abilene TX 79603-5458,Rent-A-Center,1206 N Mockingbird Ln,,Abilene,TX,79603-4706,(325) 695-0280,,Offer Expires 01/13/2025,,12/30/2024
,ATTAFFTTDATFTADFATFFATTTADTADTDDADTFTFFTDTTAAFFTAFDFDFFDADAFTTAAF,RAC2501-DM06-A-PO,4,1238,***************AUTO**MIXED AADC 786,David Gonzales,OR CURRENT RESIDENT,308 N.E. 10th St.,,Big Spring TX 79720-1306,Rent-A-Center,501 Birdwell Ln,Ste 14,Big Spring,TX,79720-3335,(432) 263-0076,,Offer Expires 01/13/2025,,12/30/2024
,ATFDTADAAAAFFATTDFFAFAAAFTADTDFTFDTTAAAAFDDFDDDDADFTDDTDADTTTDFFD,RAC2501-DM06-A-PO,5,1357,*********************MIXED AADC 786,Maitland J Seabrook,OR CURRENT RESIDENT,609 N Morton St 63 63 63,63 63,Saint Johns MI 48879,Rent-A-Center,721 N Waverly Rd,,Lansing,MI,48917-2242,(517) 327-2100,,Offer Expires 01/13/2025,,12/30/2024
