Break Mark,IM Barcode,Creative_Version_Cd,Tray Number,Sort Position,Endorsement Line,Full Name,Title,Address Line 1,Address Line 2,City State ZIP Code,STORE NAME,STORE ADDRESS 1,STORE ADDRESS2,SCITY,SSTATE,SZIP,Store_Phone_Number,Store_License,EXPIRES,VERSION,CAMPAIGNDATE,CREDIT,ITEM,CUSTOM_02,CUSTOM_01,First Name
,DAFTATTTFAFFDTATFFATFDTTDFAFATADFFDDFTDFTFFAAFADTFTTFTTTAADATFDAA,RAC2501-DM06-A-PU,1,6,*************AUTO**ALL FOR AADC 786,Jillian Wright,Or Current Resident,4210 N. Sh 123 APT. 1822 APT. 18221118,,San Marcos TX 78666-9813,Rent-A-Center,929 Highway 80,Ste D,San Marcos,TX,78666-8122,(512) 396-5500,,Offer Expires 01/13/2025,,12/30/24,502.01,LIVING ROOM GROUP,OFF400CBC1,400,JILLIAN
,TATTDAFADAFATTDDTADATATFATTADTTADAFDFATDDTTDDTAFFTDFTFTFDTTTFFFDA,RAC2501-DM06-A-PU,2,56,***************AUTO**MIXED AADC 786,Linda M Morinpasco,Or Current Resident,16 Brentwood Rd.,,Augusta ME 04330-4907,Rent-A-Center,56 Western Ave,,Augusta,ME,04330-6347,(207) 622-5320,,Offer Expires 01/13/2025,,12/30/24,259.86,FULL MATTRESS ONLY,OFF300CBC1,300,LINDA M
,TTDADFDFTTTATAFDTTAFADTTFADDTFAAADFDADDADDADAFFDADFDATDTAFTFFTTTF,RAC2501-DM06-A-PU,2,61,***************AUTO**MIXED AADC 786,Jason Camp Matoka,Or Current Resident,1 Great Pl.,,Smithfield ME 04978-3514,Rent-A-Center,180 Elm Plz,,Waterville,ME,04901-4936,(207) 861-5941,,Offer Expires 01/13/2025,,12/30/24,199.29,LIVING ROOM GROUP,OFF200CBC1,200,JASON
,AATTDFTTATAADTDTAFTTAFTAFDTTDATFDFFFFAAFTDAATFADFTFDDFFAAADAAFFTA,RAC2501-DM06-A-PU,2,71,***************AUTO**MIXED AADC 786,Brianna Brady,Or Current Resident,14 Court St.,,Waterbury CT 06705-1103,Rent-A-Center,625 Wolcott St,,Waterbury,CT,06705-1342,(203) 753-0000,,Offer Expires 01/13/2025,,12/30/24,53.55,DISHWASHER,OFF100CBC1,100,BRIANNA
,TTFADAFFFAATFFADFFAFDADFADATATFFTTDDAFFAATFFDDAADADFFDDDAADADTDAA,RAC2501-DM06-A-PU,2,72,***************AUTO**MIXED AADC 786,Zoraida Jimenez,Or Current Resident,24 Union St. APT. 201,,Waterbury CT 06706-1120,Rent-A-Center,104 Thomaston Ave,,Waterbury,CT,06702-1018,(203) 753-0306,,Offer Expires 01/13/2025,,12/30/24,79.97,SOFA,OFF100CBC1,100,ZORAIDA
,DTADTAFTTAAFTFFFATFDDTAFTTFFFAFDFDTDFDTDTDFTFADADFTFDTFDDDDTFFDDT,RAC2501-DM06-A-PU,2,164,***************AUTO**MIXED AADC 786,Yolanda Malachi,Or Current Resident,24 Briarcliff Dr.,,New Castle DE 19720-1304,Rent-A-Center,185 Penn Mart Shopping Ctr,,New Castle,DE,19720-4208,(302) 322-4335,,Offer Expires 01/13/2025,,12/30/24,91.96,FULL SIZE WASHER,OFF100CBC1,100,YOLANDA
,DAAFTTAFDTATFTAFAFFFATDTAFTFAADTTFFTDDDFTTAFAAAFDAADTTFTATATFTTAF,RAC2501-DM06-A-PU,2,165,***************AUTO**MIXED AADC 786,Brandi Henderson,Or Current Resident,184 Misty Way,,Hartly DE 19953-3502,Rent-A-Center,120b E Glenwood Ave,,Smyrna,DE,19977-1003,(302) 653-3701,,Offer Expires 01/13/2025,,12/30/24,"1,007.18",LIVING ROOM GROUP,OFF400CBC1,400,BRANDI
,DDDTATTDDAFTDFFAFAADAFATTTDAADTAFDFFFFDTFFDFATDTATDFFTFFADTTADDFD,RAC2501-DM06-A-PU,2,168,***************AUTO**MIXED AADC 786,Carol Bare,Or Current Resident,1013 Warwick Dr. APT. 2C,,Aberdeen MD 21001-2741,Rent-A-Center,1-B Aberdeen Shopping Plaza,,Aberdeen,MD,21001-2247,(410) 273-1111,,Offer Expires 01/13/2025,,12/30/24,55.98,LIVING ROOM GROUP,OFF100CBC1,100,CAROL
,DDFTATTTFFFADDDTATAFFDTFATDDTTTTFFFADATFDTTAATATATDADADAADTFDAADF,RAC2501-DM06-A-PU,2,191,***************AUTO**MIXED AADC 786,Linda Lively,Or Current Resident,3964 Swords Creek Rd. APT. 1,,Swords Creek VA 24649-7958,Rent-A-Center,1062 Regional Park Rd,,Lebanon,VA,24266-3712,(276) 889-1894,,Offer Expires 01/13/2025,,12/30/24,231.34,FULL SIZE DRYER,OFF250CBC1,250,LINDA
,TTADTTADTTTADADDTADDTFATAAFTDDATAAFTTFTDAATTFFDADADTDADTAAFTAFFAT,RAC2501-DM06-A-PU,2,197,***************AUTO**MIXED AADC 786,Ramona Slone,Or Current Resident,5254 Ky Route 302,,Van Lear KY 41265-9019,Rent-A-Center,51 Glynnview Plz,,Prestonsburg,KY,41653-7958,(606) 886-6211,,Offer Expires 01/13/2025,,12/30/24,136.86,ELECTRIC RANGE,OFF150CBC1,150,RAMONA
,AADDDFDAFAADATDAAATAAFATATDAAAAFTDDFADFTAFFTATFDFAAAFDDTTTTDDDTTD,RAC2501-DM06-A-PU,2,198,***************AUTO**MIXED AADC 786,Albert Kingery,Or Current Resident,3112 Island Creek Rd.,,Pikeville KY 41501-7130,Rent-A-Center,244 Cassidy Blvd,#500,Pikeville,KY,41501-1502,(606) 432-2647,,Offer Expires 01/13/2025,,12/30/24,275.40,Ultra High Def LED TV,OFF300CBC1,300,ALBERT
,DDFTDDDTTTATDDTTTAFTTFATTTFDTDATFDTTFDTDFAAATFTTTAFFFFDTFDAAFFDDT,RAC2501-DM06-A-PU,2,199,***************AUTO**MIXED AADC 786,Deborah Tanner,Or Current Resident,1004 Louise Dr.,,East Bend NC 27018-7429,Rent-A-Center,213 Winston Road,,Jonesville,NC,28642-2211,(336) 835-1263,,Offer Expires 01/13/2025,,12/30/24,59.98,WASHER DRYR TOP LOAD PAIR,OFF100CBC1,100,DEBORAH
,DTFDTAAFDTDTDAATFTTFFTFDTDTFDFFDFAAAAAFAAADFDDDDFADDDDDAFADDADATD,RAC2501-DM06-A-PU,2,235,***************AUTO**MIXED AADC 786,Cala Clark,Or Current Resident,145 Dixie Trl.,,Hamlet NC 28345-9380,Rent-A-Center,722 E Us Highway 74,Ste I,Rockingham,NC,28379-4980,(910) 582-2459,,Offer Expires 01/13/2025,,12/30/24,369.19,CHAIR,OFF400CBC1,400,CALA
,AADADFDTAFFFADADDTDFTFDDDTDTDDFTTFATFTDDTDDTTDTFAFDFTDFTDFDFAAADD,RAC2501-DM06-A-PU,2,238,***************AUTO**MIXED AADC 786,Sharon Goodwin,Or Current Resident,1339 Cauthen Dr.,,Rockingham NC 28379-4871,Rent-A-Center,722 E Us Highway 74,Ste I,Rockingham,NC,28379-4980,(910) 582-2459,,Offer Expires 01/13/2025,,12/30/24,149.48,LAPTOP COMPUTER,OFF150CBC1,150,SHARON
,FFADDTFDFDTTATADFFTTDTADDADFFDTTAATFTDTDFDTDDTAAFTDAFDDTAATTDFTDA,RAC2501-DM06-A-PU,2,239,***************AUTO**MIXED AADC 786,James Davis,Or Current Resident,522 Chapel Hill Rd. APT. 102,,Spring Lake NC 28390-2173,Rent-A-Center,221 Skyland Shopping Center,,Spring Lake,NC,28390,(910) 436-0149,,Offer Expires 01/13/2025,,12/30/24,815.76,DIGITAL CAMERA,OFF400CBC1,400,JAMES
,DDFDTFTFTFADTATAFFTADADDDDATDFDFATDDDDFTDFATTDTTATFAADTATTAFADTTF,RAC2501-DM06-A-PU,2,262,***************AUTO**MIXED AADC 786,Tammy Buchanan,Or Current Resident,26 Lamp Dr.,,Marion NC 28752-5589,Rent-A-Center,1247 Burkemont Ave,Ste 20  Magnolia Plaza,Morganton,NC,28655-4541,(828) 433-9305,,Offer Expires 01/13/2025,,12/30/24,259.66,FULL SIZE WASHER,OFF300CBC1,300,TAMMY
,FFADTDDFDFFAATDDFTTTTFDFTATTTTAFTDDAFTTFAFFAAAADTFDFDAATDTADDFADF,RAC2501-DM06-A-PU,2,268,***************AUTO**MIXED AADC 786,Alma Maney,Or Current Resident,521 Bishops Branch Rd.,,Central SC 29630-9610,Rent-A-Center,2817 S. Main Street,,Anderson,SC,29624,(864) 231-6888,,Offer Expires 01/13/2025,,12/30/24,181.73,CHAIR,OFF200CBC1,200,ALMA
,ATAAAATTFFDATAFADADFATDDTTTDDAATATFFFTDTADTADAFATAATFTAATAFFAAFAT,RAC2501-DM06-A-PU,2,269,***************AUTO**MIXED AADC 786,Jessica Daniel,Or Current Resident,700 Brook St. APT. 11,,Honea Path SC 29654-2271,Rent-A-Center,2817 S. Main Street,,Anderson,SC,29624,(864) 231-6888,,Offer Expires 01/13/2025,,12/30/24,"1,096.28",LIVING ROOM GROUP,OFF400CBC1,400,JESSICA
,AFFTDTFTTTTAFDAFTAFDFTAADDFADTDTFFTFTDFDDDTDTFDAFDFAADDTTFAATTTTF,RAC2501-DM06-A-PU,2,272,***************AUTO**MIXED AADC 786,Teaera S Brumfield,Or Current Resident,104 Amelia Garden Way,,Lawrenceville GA 30045-6843,Rent-A-Center,247 Scenic Hwy,,Lawrenceville,GA,30046-8402,(770) 962-4441,,Offer Expires 01/13/2025,,12/30/24,"1,029.01",FULL SIZE WASHER,OFF400CBC1,400,TEAERA S
,DAADTAFAFTDFFATFTDDTFADTFDTFTDATFDTTFFTDTAAFTTAFTFAADFDDDAFTFADDD,RAC2501-DM06-A-PU,2,273,***************AUTO**MIXED AADC 786,Stephanique Lee,Or Current Resident,569 Whitehall Ln.,,Lawrenceville GA 30046-4586,Rent-A-Center,247 Scenic Hwy,,Lawrenceville,GA,30046-8402,(770) 962-4441,,Offer Expires 01/13/2025,,12/30/24,164.89,FULL SIZE WASHER,OFF200CBC1,200,STEPHANIQUE
,DTDADTDDFFFADDAAFFDAFDDDTATDDAFTFTFDATAFTAAAADDDTTTATAADAAADAFFAD,RAC2501-DM06-A-PU,2,276,***************AUTO**MIXED AADC 786,Dorothy Thompson,Or Current Resident,584 Fowler St.,,Canon GA 30520-3204,Rent-A-Center,131 Walmart Dr,,Hartwell,GA,30643-8435,(706) 521-6979,,Offer Expires 01/13/2025,,12/30/24,122.50,FULL SIZE WASHER,OFF150CBC1,150,DOROTHY
,TTTTAFTTFDFTDATATTFDDDTDTFTFFFTDFAFATTDTATDFDTDTFDFFFAFAFTFDTAFAA,RAC2501-DM06-A-PU,2,277,***************AUTO**MIXED AADC 786,Rhiver Howard,Or Current Resident,136 Ashley Cir. APT. 5,,Athens GA 30605-2898,Rent-A-Center,2980 Lexington Rd,,Athens,GA,30605,(706) 549-0341,,Offer Expires 01/13/2025,,12/30/24,926.17,FULL SIZE WASHER,OFF400CBC1,400,RHIVER
,DDDTTDFATTDAATTAFATFFTTDAFTFTTAFTTFFFADFDTADTDADTADTAAAATFTDTADDD,RAC2501-DM06-A-PU,2,294,***************AUTO**MIXED AADC 786,William McLeod,Or Current Resident,1074 Rogers Rd.,,Glennville GA 30427-3470,Rent-A-Center,103 W Gen Screven Way,Ste I,Hinesville,GA,31313-3098,(912) 368-3367,,Offer Expires 01/13/2025,,12/30/24,259.92,LAPTOP COMPUTER,OFF300CBC1,300,WILLIAM
,AFDADTAAFATDDDADTFDFTDFTADTTDFDATDAAFFAAATADDFDFATAADDTDFAFTFFDTT,RAC2501-DM06-A-PU,2,295,***************AUTO**MIXED AADC 786,Derrick Pruitt,Or Current Resident,3204 Lyons Center Rd.,,Lyons GA 30436-5849,Rent-A-Center,605 E 1st St,,Vidalia,GA,30474-4264,(912) 537-2160,,Offer Expires 01/13/2025,,12/30/24,530.73,QUEEN MATTRESS ONLY,OFF400CBC1,400,DERRICK
,DAFTFFFFAFAFFAAFDTTADDTADDTFADAAADDAFAAAFFFDFTTDFFDFADATATFFDFDDD,RAC2501-DM06-A-PU,2,302,***************AUTO**MIXED AADC 786,Roberta Minor,Or Current Resident,12 Haven Dr.,,Savannah GA 31406-2926,Rent-A-Center,49 W. Montgomery Crossroads Ste. 1,,Savannah,GA,31406-3467,(912) 920-2535,,Offer Expires 01/13/2025,,12/30/24,"1,053.69",LIVING ROOM GROUP,OFF400CBC1,400,ROBERTA
,AAFTTDDFATFFFAADTFAATFFTADDTDTDAFFATDADTFTTTFDFDATAFDDADDTAFDFAFF,RAC2501-DM06-A-PU,2,303,***************AUTO**MIXED AADC 786,Cathee Steele,Or Current Resident,150 Azalea Ave.,,Garden City GA 31408-1306,Rent-A-Center,109 Minis Ave,Ste B5,Garden City,GA,31408-2128,(912) 964-5209,,Offer Expires 01/13/2025,,12/30/24,262.62,AIR CONDITIONER,OFF300CBC1,300,CATHEE
,FFFTADTAAAATDTTAATFFAFDFFFATADFAFFDAAFTADATDTFFAFDFFTDDAFFTFFFFDD,RAC2501-DM06-A-PU,2,304,***************AUTO**MIXED AADC 786,Schaffer Paul,Or Current Resident,106 Sutherland Dr.,,Brunswick GA 31525-4529,Rent-A-Center,1919 Glynn Ave,Ste 90,Brunswick,GA,31520-6174,(912) 265-7158,,Offer Expires 01/13/2025,,12/30/24,108.29,REFRIGERATOR,OFF150CBC1,150,SCHAFFER
,FDFTTADDFTAFADAFATFFDTTTFDATDAATTAFFDDTDDTDDDADDFFFTFAADDAATDAFTA,RAC2501-DM06-A-PU,2,305,***************AUTO**MIXED AADC 786,Jeri Foster,Or Current Resident,18890 Highway 301 N.,,Hortense GA 31543-3552,Rent-A-Center,792 N 1st St,,Jesup,GA,31545-1608,(912) 427-9982,,Offer Expires 01/13/2025,,12/30/24,244.64,TWIN MATTRESS ONLY,OFF250CBC1,250,JERI
,AFFDATAAFATFFDDDTDFFAADAATTTFDTADDDAAFATATFAFDFAADTFFFTTFFFAFTDAD,RAC2501-DM06-A-PU,2,306,***************AUTO**MIXED AADC 786,Erica Manningbeltran,Or Current Resident,144 Chickadee Cir.,,Jesup GA 31545-7453,Rent-A-Center,792 N 1st St,,Jesup,GA,31545-1608,(912) 427-9982,,Offer Expires 01/13/2025,,12/30/24,"1,364.93",FULL SIZE WASHER,OFF400CBC1,400,ERICA
,DAFDATAFDDFDDATFDDATAFFDTDTFDTDAFFATDTTAAAAFFFAAATFFTAADFFTFADDFD,RAC2501-DM06-A-PU,2,307,***************AUTO**MIXED AADC 786,Coy J Carter,Or Current Resident,17860 Anne Rd.,,Glen Saint Mary FL 32040-2410,Rent-A-Center,6316 103rd St,,Jacksonville,FL,32210-7735,(904) 573-6669,,Offer Expires 01/13/2025,,12/30/24,"1,324.23",WASHER DRYR TOP LOAD PAIR,OFF400CBC1,400,COY J
,FDDFDDADDTFDATTTAADADATAFADADFFDTTFDFTFFDFTTAFATTDDTTFTFAFFAFAFFT,RAC2501-DM06-A-PU,2,308,***************AUTO**MIXED AADC 786,Adam S Rosier,Or Current Resident,1988 N.W. 223rd St.,,Lawtey FL 32058-3896,Rent-A-Center,1371 S Walnut St,Ste 1800,Starke,FL,32091-4427,(904) 368-8138,,Offer Expires 01/13/2025,,12/30/24,"1,249.75",BOTTOM MOUNT REFRIGERATOR,OFF400CBC1,400,ADAM S
,TDFDDFAFTAFATDAAFAAFFFDTATTTTFTDATDTTTADDTDDFDDDFATTATTTFDADTTDDA,RAC2501-DM06-A-PU,2,309,***************AUTO**MIXED AADC 786,Joseph Johns,Or Current Resident,5068 Astral St.,,Jacksonville FL 32205-6449,Rent-A-Center,1020 Edgewood Avenue N Unit 6-9,,Jacksonville,FL,32254-3014,(904) 388-5411,,Offer Expires 01/13/2025,,12/30/24,620.70,Ultra High Def LED TV,OFF400CBC1,400,JOSEPH
,FATADTDDDTATFFFDTFTAFDATFDAAFTTDDDTADTDTTTTFFDFFTTFDDATTDTFDTDFFT,RAC2501-DM06-A-PU,2,310,***************AUTO**MIXED AADC 786,Tom Parker,Or Current Resident,9844 Sherbrook Ln.,,Jacksonville FL 32221-1264,Rent-A-Center,6316 103rd St,,Jacksonville,FL,32210-7735,(904) 573-6669,,Offer Expires 01/13/2025,,12/30/24,127.95,REFRIGERATOR,OFF150CBC1,150,TOM
,AAFDDTTATTTFFDADAFTADAFFTFDDFTFDTDFFDDTTATTFATDADTAFFFDFTAATDFAAD,RAC2501-DM06-A-PU,2,311,***************AUTO**MIXED AADC 786,Robin L Moreno,Or Current Resident,9611 Southbrook Dr. # 3201,,Jacksonville FL 32256-0498,Rent-A-Center,5845 University Blvd W,,Jacksonville,FL,32216,(904) 731-8910,,Offer Expires 01/13/2025,,12/30/24,667.45,VIDEO GAME SYSTEM,OFF400CBC1,400,ROBIN L
,AFFTDDFAFFFDAFAFTDATTTDATDDFTDDAFFTDFDDADFTDADDFTDTAATATATTDTFTTD,RAC2501-DM06-A-PU,2,312,***************AUTO**MIXED AADC 786,Ronald Cook,Or Current Resident,4415 Jiggermast Ave.,,Jacksonville FL 32277-1052,Rent-A-Center,9400 Atlantic Blvd,,Jacksonville,FL,32225,(904) 725-0025,,Offer Expires 01/13/2025,,12/30/24,95.29,LAPTOP COMPUTER,OFF100CBC1,100,RONALD
,DFAADTTAFDDDADATFTFDFTAFADATATTDADADAFATFFDTFAFFTADADDATAADATDADF,RAC2501-DM06-A-PU,2,313,***************AUTO**MIXED AADC 786,Sue Michelle,Or Current Resident,6110 N.W. 26th St.,,Gainesville FL 32653-1983,Rent-A-Center,1200 N Main St,,Gainesville,FL,32601-4370,(352) 372-5555,,Offer Expires 01/13/2025,,12/30/24,392.01,WASHER DRYR TOP LOAD PAIR,OFF400CBC1,400,SUE
,FAAFATDDTTFDAFAAFDTTFDDADDADFTFTDDDATFDTADDADTFFTFAFATDTFAAADDFFD,RAC2501-DM06-A-PU,2,314,***************AUTO**MIXED AADC 786,Jeffrey S Bilyou,Or Current Resident,528 N.E. 290th Ave.,,Old Town FL 32680-8802,Rent-A-Center,2202 N Young Blvd,Ste 701-702,Chiefland,FL,32626-1914,(352) 493-1083,,Offer Expires 01/13/2025,,12/30/24,844.71,WASHER DRYER FRNT LD PAIR,OFF400CBC1,400,JEFFREY S
,AFAATTDTTATDTTTFFADDDTATFFTAADAFTFDAFFFDAATDATDTFDFTAFFATFFTATDFT,RAC2501-DM06-A-PU,2,315,***************AUTO**MIXED AADC 786,Sheila D Williams,Or Current Resident,2847 N.E. 7th St. APT. C,,Ocala FL 34470-6356,Rent-A-Center,4901 E Silver Springs,Ste 713-714,Ocala,FL,34470-3228,(352) 351-4499,,Offer Expires 01/13/2025,,12/30/24,84.97,SMART PHONE,OFF100CBC1,100,SHEILA D
,FTADTTATTTAATAFATTTDADATAFDFFFAFTDFTTTFTDADFTTFFDADDFDFFADDTAAFFT,RAC2501-DM06-A-PU,2,316,***************AUTO**MIXED AADC 786,Janice Wright,Or Current Resident,24 Oak Loop,,Ocala FL 34472-2354,Rent-A-Center,10449 Se Us Highway 441,,Belleview,FL,34420-2805,(352) 307-3644,,Offer Expires 01/13/2025,,12/30/24,447.84,ELECTRIC RANGE,OFF400CBC1,400,JANICE
,FFDDAFDTTADTATTFADTADFFFATFTFTTDDADFATTDDTAADFATDFTFATFTATFTADFTF,RAC2501-DM06-A-PU,2,317,***************AUTO**MIXED AADC 786,Julianna Guess,Or Current Resident,5145 S.W. College Rd.,,Ocala FL 34474-5707,Rent-A-Center,3131 Sw College Rd,Ste 209,Ocala,FL,34474-4422,(352) 854-0606,,Offer Expires 01/13/2025,,12/30/24,114.24,Ultra High Def LED TV,OFF150CBC1,150,JULIANNA
,AAADDTTDAAFAAATFTDDFADTADFDTDDAFFDTAFFDAAAATDTTATTAFTAATTFATATFAD,RAC2501-DM06-A-PU,2,318,***************AUTO**MIXED AADC 786,Julie Burt,Or Current Resident,3608 Becky St.,,Valdosta GA 31605-5206,Rent-A-Center,1104 N Ashley St,,Valdosta,GA,31601-4014,(229) 244-6758,,Offer Expires 01/13/2025,,12/30/24,108.29,LIVING ROOM GROUP,OFF150CBC1,150,JULIE
,DDATADFFTATFATTAATAFAFDDTDDTADADDDDDATFTTDTFDFTFADDFAAFTFFADFFTDD,RAC2501-DM06-A-PU,2,320,***************AUTO**MIXED AADC 786,Adrianna Hartsfield,Or Current Resident,226 Columbia Dr. APT. 5,,Tallahassee FL 32304-3192,Rent-A-Center,1964 W Tennessee St,Ste 15,Tallahassee,FL,32304-3238,(850) 222-7564,,Offer Expires 01/13/2025,,12/30/24,70.67,TWIN MATTRESS ONLY,OFF100CBC1,100,ADRIANNA
,FTFDFATDDTADTDFTAFATAAFTTTATTATAAADDAFDDDFTTFTDDTTFDFADFFDADTATAA,RAC2501-DM06-A-PU,2,321,***************AUTO**MIXED AADC 786,Heather D Messer,Or Current Resident,1101 N.W. Avenue D,,Carrabelle FL 32322-7549,Rent-A-Center,2000 Crawfordville Hwy,Ste C,Crawfordville,FL,32327-1090,(850) 219-0470,,Offer Expires 01/13/2025,,12/30/24,211.82,LIVING ROOM GROUP,OFF250CBC1,250,HEATHER D
,FTTTTFFFDFTFFTDAFFDFAFDTFDTDADFAAFDFAADTFDFFFFDFTFTFTTFDTDADDFDTT,RAC2501-DM06-A-PU,2,322,***************AUTO**MIXED AADC 786,Michael R Utt,Or Current Resident,23 Old Courthouse Way Unit A,,Crawfordville FL 32327-8058,Rent-A-Center,2000 Crawfordville Hwy,Ste C,Crawfordville,FL,32327-1090,(850) 219-0470,,Offer Expires 01/13/2025,,12/30/24,"1,237.98",REFRIGERATOR,OFF400CBC1,400,MICHAEL R
,TTTDFTADFDTDDTDTATFAAFDDDFADFATDAADFFAFDTFDADTDTTDATAFTATDFDTTDAD,RAC2501-DM06-A-PU,2,324,***************AUTO**MIXED AADC 786,Deedgra L Bell,Or Current Resident,1000 Transmitter Rd. APT. A2,,Panama City FL 32401-5311,Rent-A-Center,831 N. Tyndall Pkwy,,Callaway,FL,32404,(850) 763-4400,,Offer Expires 01/13/2025,,12/30/24,69.33,WASHER DRYR TOP LOAD PAIR,OFF100CBC1,100,DEEDGRA L
,ATTDTFADFDTTTAAADAFDDATFFAATDFFTFAFTDFADAATATFTAFTADDFFDFDDDTDAAA,RAC2501-DM06-A-PU,2,325,***************AUTO**MIXED AADC 786,Mary Washburn,Or Current Resident,21105 Hurst Rd.,,Fountain FL 32438-1950,Rent-A-Center,1377 Brickyard Road,Ste 1a,Chipley,FL,32428-2455,(850) 638-1153,,Offer Expires 01/13/2025,,12/30/24,821.91,QUEEN MATTRESS ONLY,OFF400CBC1,400,MARY
,ATFFFTTFTADTTDTAFTTFATFAFFATTAATFATDTFTDAAADDFDDFFDATATDDTTTDAFTF,RAC2501-DM06-A-PU,2,329,***************AUTO**MIXED AADC 786,John Kelley,Or Current Resident,7225 Rebel Dr.,,Milton FL 32583-5330,Rent-A-Center,6544 Caroline St,,Milton,FL,32570-4778,(850) 983-7800,,Offer Expires 01/13/2025,,12/30/24,"1,274.48",SMART PHONE,OFF400CBC1,400,JOHN
,ADDTDDFTDFDFDFFATDAFDAADDFFADFDFTTDAAFTDAAFDADADAFFFADDFTFTTAADTT,RAC2501-DM06-A-PU,2,330,***************AUTO**MIXED AADC 786,Hartensia Jackson,Or Current Resident,1851 Lpga Blvd. APT. 1208,,Daytona Beach FL 32117-7176,Rent-A-Center,3999a-4001a South Nova Road,,Port Orange,FL,32127,(386) 760-7777,,Offer Expires 01/13/2025,,12/30/24,189.95,LIVING ROOM GROUP,OFF200CBC1,200,HARTENSIA
,AFFDFTTFDAFFFTAFTAFFADFAFDADDTAAFDDADADAATDTFAFFFFTDTDFTATFAADFFF,RAC2501-DM06-A-PU,2,331,***************AUTO**MIXED AADC 786,Cierra Schurr,Or Current Resident,521 Lafayette St.,,Port Orange FL 32127-4415,Rent-A-Center,3999a-4001a South Nova Road,,Port Orange,FL,32127,(386) 760-7777,,Offer Expires 01/13/2025,,12/30/24,165.60,Ultra High Def LED TV,OFF200CBC1,200,CIERRA
,TFADTTDADDATFTFDFAFFDFDTTTAFTTADDDTDAFDAFTADTATFDATFDTTAAAFFFDDTA,RAC2501-DM06-A-PU,2,333,***************AUTO**MIXED AADC 786,John Stuart,Or Current Resident,1510 Ocean Shore Blvd. APT. 410,,Ormond Beach FL 32176-3650,Rent-A-Center,3999a-4001a South Nova Road,,Port Orange,FL,32127,(386) 760-7777,,Offer Expires 01/13/2025,,12/30/24,174.95,LAPTOP COMPUTER,OFF200CBC1,200,JOHN
,FTFFAFTDFDTFDTAFDATFDDDFAADTDADTTAAFDDDFFDTAAAADDTFTFDAAAFDATATTT,RAC2501-DM06-A-PU,2,334,***************AUTO**MIXED AADC 786,Linda Arendale,Or Current Resident,1522 Wyngate Dr.,,Deland FL 32724-7932,Rent-A-Center,2613 S Woodland Blvd,,Deland,FL,32720-8641,(386) 738-3225,,Offer Expires 01/13/2025,,12/30/24,154.70,CHAIR,OFF200CBC1,200,LINDA
,FTFAFADATFDTDFDAATDDFDFFTTTTTFAAATFFATFFTTFAFDDDTTFATTFDAADDTTFDF,RAC2501-DM06-A-PU,2,335,***************AUTO**MIXED AADC 786,Jonathan Ball,Or Current Resident,319 Stratford Dr.,,Deland FL 32724-8385,Rent-A-Center,2613 S Woodland Blvd,,Deland,FL,32720-8641,(386) 738-3225,,Offer Expires 01/13/2025,,12/30/24,57.12,FULL MATTRESS+FOUNDATION,OFF100CBC1,100,JONATHAN
,TTAADTTADFFDTFTFTTAFATDAFAFTAATDDATTTDFDTDDDFFDTAFTTFFTTDFFTATDAF,RAC2501-DM06-A-PU,2,336,***************AUTO**MIXED AADC 786,Twanya U Alexander,Or Current Resident,1424 Franconia Ave.,,Deltona FL 32738-5183,Rent-A-Center,834 Saxon Blvd,Ste 20,Orange City,FL,32763-8207,(386) 774-5100,,Offer Expires 01/13/2025,,12/30/24,235.37,BEDROOM,OFF250CBC1,250,TWANYA U
,DAAAADTDDDATFDDFFTFATTTDAADAFTAADATTFFDFFDFDDFTTTADDDDFFFTDFFDAAD,RAC2501-DM06-A-PU,2,345,***************AUTO**MIXED AADC 786,Ashenka Broome,Or Current Resident,255 Big Sioux Dr.,,Kissimmee FL 34759-5924,Rent-A-Center,1070 Cypress Pkwy,,Poinciana,FL,34759-3328,(407) 483-9200,,Offer Expires 01/13/2025,,12/30/24,205.65,KING MATTRESS ONLY,OFF250CBC1,250,ASHENKA
,TATTTFDTDFADAAADFTFDTDDATFDAADDTFTAAAAAFTATDDATFDADTATAFTTTDAATFD,RAC2501-DM06-A-PU,2,363,***************AUTO**MIXED AADC 786,Danyell Britton,Or Current Resident,1813 Bond St.,,Plant City FL 33563-6211,Rent-A-Center,1342 Ariana St,,Lakeland,FL,33803-1817,(863) 680-9922,,Offer Expires 01/13/2025,,12/30/24,"1,259.58",BEDROOM,OFF400CBC1,400,DANYELL
,TDAADFDDAATAFTTADFTFAFTFADTDAADTTATTDFATDTDTATAAFTFFADFFFAFADFAFD,RAC2501-DM06-A-PU,2,371,***************AUTO**MIXED AADC 786,Viviana Gonzalez,Or Current Resident,4520 Douglas Ln.,,Lehigh Acres FL 33973-2070,Rent-A-Center,1209 Homestead Rd N,,Lehigh Acres,FL,33936-6062,(239) 369-7368,,Offer Expires 01/13/2025,,12/30/24,495.84,LIVING ROOM GROUP,OFF400CBC1,400,VIVIANA
,TATTTAATFTTAAATTAADTTDFDDFFFFDAFFDFAFADDTFDATDTTAAFDDFDFTFDAATDFF,RAC2501-DM06-A-PU,2,377,***************AUTO**MIXED AADC 786,Ajahnae Young,Or Current Resident,400 W. Beacon Rd. APT. 204,,Lakeland FL 33803-7253,Rent-A-Center,1342 Ariana St,,Lakeland,FL,33803-1817,(863) 680-9922,,Offer Expires 01/13/2025,,12/30/24,116.31,LIVING ROOM GROUP,OFF150CBC1,150,AJAHNAE
,TTAFAATATAFTDDTTTATFFDFAAFAAFAFFDFFDFTTTTAFATFTDFTFFDADATFFTAATAA,RAC2501-DM06-A-PU,2,380,***************AUTO**MIXED AADC 786,Crystal Olp,Or Current Resident,2850 New Tampa Hwy. Lot 42,,Lakeland FL 33815-8304,Rent-A-Center,1342 Ariana St,,Lakeland,FL,33803-1817,(863) 680-9922,,Offer Expires 01/13/2025,,12/30/24,659.67,FULL SIZE DRYER,OFF400CBC1,400,CRYSTAL
,DTFDATAAFFAADFTFTAFAFAFDATTDFFFTADDTTFTFDFTFAAAAFATFTDATATDDTDFTT,RAC2501-DM06-A-PU,2,396,***************AUTO**MIXED AADC 786,Linda F Kimbrough,Or Current Resident,3000 Hixon Rd. N.W. APT. 201,,Fort Payne AL 35967-8495,Rent-A-Center,23730 John T Reid Pkwy,,Scottsboro,AL,35768-2839,(256) 574-3348,,Offer Expires 01/13/2025,,12/30/24,"1,330.77",LIVING ROOM GROUP,OFF400CBC1,400,LINDA F
,DTFDADFATDAFDAAAFFAFAATADDFDDTTDDAADDAAAAFATTTTFTAADAFFAAAAFADFTF,RAC2501-DM06-A-PU,2,401,***************AUTO**MIXED AADC 786,Cheree Sanders,Or Current Resident,22543 Plaza Cir.,,Florala AL 36442-4334,Rent-A-Center,412 N Main St,,Opp,AL,36467-1607,(334) 493-1919,,Offer Expires 01/13/2025,,12/30/24,868.65,VIDEO GAME SYSTEM,OFF400CBC1,400,CHEREE
,TDFFDDDAFADADTTTADTFFFTTATADADFDATTFADDTFATFADTFDFFDFTFATDFATDDFT,RAC2501-DM06-A-PU,2,402,***************AUTO**MIXED AADC 786,Kathy Goodson,Or Current Resident,28272 Beulah Church Rd.,,Opp AL 36467-4024,Rent-A-Center,412 N Main St,,Opp,AL,36467-1607,(334) 493-1919,,Offer Expires 01/13/2025,,12/30/24,697.33,LAPTOP COMPUTER,OFF400CBC1,400,KATHY
,DFDFFATADFFTFTFDTFDATATFTFFTAFFATDFFAFTFAFATTAFDDADFDTDDTDDDAFTDA,RAC2501-DM06-A-PU,2,419,***************AUTO**MIXED AADC 786,Brandon Hale,Or Current Resident,517 Harris Rd.,,Crossville TN 38571-2210,Rent-A-Center,424 Obed Plz,,Crossville,TN,38555-6732,(931) 707-8900,,Offer Expires 01/13/2025,,12/30/24,596.83,SMART PHONE,OFF400CBC1,400,BRANDON
,DDDTFFFFAADTDTATDAFTTDATAFDTATAADFAFTATAFAATTDDFTAFDAAFFFAADADADD,RAC2501-DM06-A-PU,2,433,***************AUTO**MIXED AADC 786,Roy Charles,Or Current Resident,11719 Albemarle Rd.,,Coeburn VA 24230-6713,Rent-A-Center,151 Ridgeview Rd Sw,,Wise,VA,24293-4619,(276) 679-4848,,Offer Expires 01/13/2025,,12/30/24,727.56,QUEEN MATTRESS ONLY,OFF400CBC1,400,ROY
,TFDAFADFFAAAATDDTFDTDTDFTTTFDFFTFDFFDFFFFTDTTFAAAATTTFDFFDFDTTDTD,RAC2501-DM06-A-PU,2,438,***************AUTO**MIXED AADC 786,Jaden Daugherty,Or Current Resident,255 Ridenour Ln.,,Jacksboro TN 37757-5205,Rent-A-Center,2221 Jacksboro Pike,Ste A3,Lafollette,TN,37766-3004,(423) 907-0088,,Offer Expires 01/13/2025,,12/30/24,476.38,Ultra High Def LED TV,OFF400CBC1,400,JADEN
,TDADFFDFFFTATDTAFAAAADTFTFFDTDDFFTFTDTTDFDTFFDFTDDDDDDTFDFDAATADA,RAC2501-DM06-A-PU,2,447,***************AUTO**MIXED AADC 786,Michael Mills,Or Current Resident,191 Bratard Rd.,,Gray KY 40734-6502,Rent-A-Center,241 Parkway Plz,,Barbourville,KY,40906-7304,(606) 546-4401,,Offer Expires 01/13/2025,,12/30/24,71.97,VIDEO GAME SYSTEM,OFF100CBC1,100,MICHAEL
,DADADAAAFTTDFTDDADATDAAAAFTTTAADADFTTDTTDAADTATATTDFAFTTDATDAFFFA,RAC2501-DM06-A-PU,2,448,***************AUTO**MIXED AADC 786,Derek Lawson,Or Current Resident,699 Cane Creek Rd.,,Williamsburg KY 40769-9391,Rent-A-Center,965 S Highway 25 W,Ste 4b,Williamsburg,KY,40769-1608,(606) 549-8652,,Offer Expires 01/13/2025,,12/30/24,266.76,Ultra High Def LED TV,OFF300CBC1,300,DEREK
,TTATTFDFFFTTTAFAFDDDFFATDDTATTFDFTTAFTDFAFDDDAATDDFDTFAFFFTADTFTA,RAC2501-DM06-A-PU,2,449,***************AUTO**MIXED AADC 786,Patricia Brock,Or Current Resident,48 Georges Br.,,Eolia KY 40826-6509,Rent-A-Center,88 Whitesburg Plaza,,Whitesburg,KY,41858-7501,(606) 240-1634,,Offer Expires 01/13/2025,,12/30/24,194.88,FULL SIZE WASHER,OFF200CBC1,200,PATRICIA
,FTTFFTDDTFADAADFATDDFAFTFTTATFFDFADTFTDFATADAADAFDTAAFFTFAFTAFDFF,RAC2501-DM06-A-PU,2,450,***************AUTO**MIXED AADC 786,Howard Smith,Or Current Resident,464 Greenbriar Hollow Rd.,,Green Road KY 40946-6565,Rent-A-Center,241 Parkway Plz,,Barbourville,KY,40906-7304,(606) 546-4401,,Offer Expires 01/13/2025,,12/30/24,703.35,ELECTRIC RANGE,OFF400CBC1,400,HOWARD
,AFFFTDFFDDFFAFTTAFTTFDFTADTTTFFTTFTFTDFTTFTDTDTFTATTFFTTTTFFTDAFD,RAC2501-DM06-A-PU,2,451,***************AUTO**MIXED AADC 786,Rickie Roberts,Or Current Resident,30 Church St. APT. 18,,Manchester KY 40962-1363,Rent-A-Center,301 Manchester Square Shpg Ctr,,Manchester,KY,40962-8700,(606) 598-6683,,Offer Expires 01/13/2025,,12/30/24,539.25,LIVING ROOM GROUP,OFF400CBC1,400,RICKIE
,AAFFTDDAFTDDFTATDADFFATTDDTDFFDATFFTDTDAFTAFAAADTAADFAAADDDDAFDTT,RAC2501-DM06-A-PU,2,452,***************AUTO**MIXED AADC 786,James Brown,Or Current Resident,281 Goose Creek Rd. APT. 411,,Neon KY 41840-8937,Rent-A-Center,88 Whitesburg Plaza,,Whitesburg,KY,41858-7501,(606) 240-1634,,Offer Expires 01/13/2025,,12/30/24,502.86,LIVING ROOM GROUP,OFF400CBC1,400,JAMES
,FFFFFTATTATTTDAFTFDTATTTDFDDDTTDTTTAFDTADDDFFTTTTATDDATFFDTAFTATA,RAC2501-DM06-A-PU,2,459,***************AUTO**MIXED AADC 786,Joyce Humphreys,Or Current Resident,833 Walnut Ave. W.,,Mc Kenzie TN 38201-1942,Rent-A-Center,1445 S First St,,Union City,TN,38261-5623,(731) 884-1900,,Offer Expires 01/13/2025,,12/30/24,283.97,FULL SIZE DRYER,OFF300CBC1,300,JOYCE
,ATFTAFTADAAFFFTFTFDFFATDDATFDAAADADAFDTDATTFFAATAFFDFTTFTFTATTDFF,RAC2501-DM06-A-PU,2,469,***************AUTO**MIXED AADC 786,Leombria Cotton,Or Current Resident,1013 S. Parkside St.,,Blytheville AR 72315-2250,Rent-A-Center,3710 E Main St,Ste F,Blytheville,AR,72315-6882,(870) 762-0600,,Offer Expires 01/13/2025,,12/30/24,643.73,FULL SIZE DRYER,OFF400CBC1,400,LEOMBRIA
,DDDAATTFTAATFFFFAAFDFTDTDTDFDDTTDDFDATDFTDAAAFFATAFFFFATDAAAFDDAT,RAC2501-DM06-A-PU,2,471,***************AUTO**MIXED AADC 786,Eddie Crockham,Or Current Resident,145 Isola St.,,Cleveland MS 38732-9307,Rent-A-Center,300 S Davis Ave,Ste D,Cleveland,MS,38732-3429,(662) 843-9099,,Offer Expires 01/13/2025,,12/30/24,121.58,Ultra High Def LED TV,OFF150CBC1,150,EDDIE
,TTDFFADFDADFADFFAATDATFATTTTADAAFFAFTTFDTTFDTFDADAFFTTATFFDAFFFFF,RAC2501-DM06-A-PU,2,472,***************AUTO**MIXED AADC 786,Alma Boyd,Or Current Resident,1417 Old Malvina Rd.,,Rosedale MS 38769-9787,Rent-A-Center,300 S Davis Ave,Ste D,Cleveland,MS,38732-3429,(662) 843-9099,,Offer Expires 01/13/2025,,12/30/24,317.74,AIR CONDITIONER,OFF350CBC1,350,ALMA
,TAATATDFATDAATTFDFDATFTFTTDTFAAFFDTATAAATADTFFAAFDATFTFADDTADTDDA,RAC2501-DM06-A-PU,2,477,***************AUTO**MIXED AADC 786,Laquiesha C Johnson,Or Current Resident,807 W. Second St.,,Yazoo City MS 39194-3414,Rent-A-Center,1194 Jerry Clower Blvd,,Yazoo City,MS,39194-3188,(662) 746-5955,,Offer Expires 01/13/2025,,12/30/24,506.94,LED,OFF400CBC1,400,LAQUIESHA C
,DTDFTDDAATTTDTAFTATDDDTFTFDDTDTTDFFADDFDFTADFAFTTTDADTAAFDTATFAAT,RAC2501-DM06-A-PU,2,487,***************AUTO**MIXED AADC 786,Amanda White,Or Current Resident,614 Barnes Mill Rd. APT. 2,,Richmond KY 40475-2275,Rent-A-Center,674 Eastern Bypass,,Richmond,KY,40475,(859) 623-5453,,Offer Expires 01/13/2025,,12/30/24,185.84,BEDROOM,OFF200CBC1,200,AMANDA
,AATTTAATATFAFADADFDDTDFTFTADADTTTDFTTATAAATDFTTDFDDDDFDAAAAFTAATD,RAC2501-DM06-A-PU,2,493,***************AUTO**MIXED AADC 786,Nevada Workman,Or Current Resident,498 Ky 15 N. APT. 22,,Campton KY 41301-6514,Rent-A-Center,1550 Highway 15 S,Ste 70,Jackson,KY,41339-0629,(606) 693-0700,,Offer Expires 01/13/2025,,12/30/24,61.69,LIVING ROOM GROUP,OFF100CBC1,100,NEVADA
,AFFTAAADTDTTADFTDTTDDTDTDDADDTDDTDFFTDTFAFFDFTTTFAAFTDAAAAAAAFFAF,RAC2501-DM06-A-PU,2,494,***************AUTO**MIXED AADC 786,Jamie Santa,Or Current Resident,151 Manor Dr.,,Beattyville KY 41311-8702,Rent-A-Center,1550 Highway 15 S,Ste 70,Jackson,KY,41339-0629,(606) 693-0700,,Offer Expires 01/13/2025,,12/30/24,112.32,Ultra High Def LED TV,OFF150CBC1,150,JAMIE
,TFTDTTDDFATDFFDTATDTFDTADAFDAADFAFAAFATADDADDTTFTFFFFTDDAATTTADDA,RAC2501-DM06-A-PU,3,587,***************AUTO**MIXED AADC 786,Xavier Payton,Or Current Resident,31122 Woodland St. APT. 18206,,Wixom MI 48393-2652,Rent-A-Center,487 Elizabeth Lake Rd,,Waterford,MI,48328-3302,(248) 706-2100,,Offer Expires 01/13/2025,,12/30/24,549.46,LIVING ROOM GROUP,OFF400CBC1,400,XAVIER
,FDTTFDFTTFFATATDAAATTAATATAADDATDTFTTAADDDAFAFATDTTTATFFDTFADFATD,RAC2501-DM06-A-PU,3,588,***************AUTO**MIXED AADC 786,Shawn Yaklin,Or Current Resident,843 North St.,,Mount Morris MI 48458-1740,Rent-A-Center,7218 N Saginaw Rd,,Mount Morris,MI,48458-2131,(810) 686-7160,,Offer Expires 01/13/2025,,12/30/24,60.68,FULL SIZE WASHER,OFF100CBC1,100,SHAWN
,FDDTDAFADFFAFTDAAADFAFAATFFTTAFFTFTATFATTDAFDAATTAAFFDAATDDADDTFD,RAC2501-DM06-A-PU,3,589,***************AUTO**MIXED AADC 786,Kaylin Warren,Or Current Resident,123 Merry Ln.,,Mount Morris MI 48458-2427,Rent-A-Center,7218 N Saginaw Rd,,Mount Morris,MI,48458-2131,(810) 686-7160,,Offer Expires 01/13/2025,,12/30/24,537.88,REFRIGERATOR,OFF400CBC1,400,KAYLIN
,ATTFTFTFATTFTFADFFAADAFADFTAATFTAAFFAFFDTADFADADFTDDATDATTFFTFDTF,RAC2501-DM06-A-PU,3,591,***************AUTO**MIXED AADC 786,Denise Green,Or Current Resident,1398 E. Juliah Ave.,,Flint MI 48505-1734,Rent-A-Center,7218 N Saginaw Rd,,Mount Morris,MI,48458-2131,(810) 686-7160,,Offer Expires 01/13/2025,,12/30/24,66.23,FULL SIZE WASHER,OFF100CBC1,100,DENISE
,DAFADAAATFAFFATATTADATFTATFDDAFTAFADDFAAFTTDDAFTTAFAFADAFDAFDATFA,RAC2501-DM06-A-PU,3,618,***************AUTO**MIXED AADC 786,Darlene Zimmer,Or Current Resident,11531 Galway Ct.,,Holland MI 49424-8512,Rent-A-Center,65 Douglas Ave,,Holland,MI,49424-3310,(616) 393-0000,,Offer Expires 01/13/2025,,12/30/24,116.96,CHAIR,OFF150CBC1,150,DARLENE
,AAFAFADAFFFTDADADTADFTATADFTATDDAFATDAFFTAFFFTAFTDDTTAFATDTTAFATA,RAC2501-DM06-A-PU,3,771,***************AUTO**MIXED AADC 786,Michael Oneal,Or Current Resident,215 G W Jackson Ave.,,Corsicana TX 75110-5336,Rent-A-Center,842 W 7th Ave,Ste A,Corsicana,TX,75110-6370,(903) 874-5611,,Offer Expires 01/13/2025,,12/30/24,168.96,Ultra High Def LED TV,OFF200CBC1,200,MICHAEL
,TFAAFATDATDFFFDDFFAFTDFDAAAFADFTFTTDADADFTFTTAADAADDDTDTATFAFDTAF,RAC2501-DM06-A-PU,3,775,***************AUTO**MIXED AADC 786,Barbara L Richardson,Or Current Resident,1815 Smoke Tree Ln.,,Dallas TX 75253-3820,Rent-A-Center,410 N Highway 175,Ste 104,Seagoville,TX,75159-1865,(972) 287-4118,,Offer Expires 01/13/2025,,12/30/24,147.29,LIVING ROOM GROUP,OFF150CBC1,150,BARBARA L
,TDAATDAFTDDDADADDDDDAFADFTFDDDADTFFDTDDTDADAFDTFDTDFDFTDDDDTDAFDD,RAC2501-DM06-A-PU,3,793,***************AUTO**MIXED AADC 786,Kristi Johnson,Or Current Resident,405 E. Navasota St.,,Groesbeck TX 76642-1537,Rent-A-Center,817 E Milam St,,Mexia,TX,76667-2447,(254) 472-0935,,Offer Expires 01/13/2025,,12/30/24,878.12,WASHER DRYER FRNT LD PAIR,OFF400CBC1,400,KRISTI
,TTFTAFAADAAFDFTDDFADFFAATDFFAFDFTAFAADFTTDDFDDFAFFDAAATFFFFFFADAF,RAC2501-DM06-A-PU,3,829,***************AUTO**MIXED AADC 786,Elaine Gamble,Or Current Resident,1004 E. Hutchinson St.,,Beeville TX 78102-3714,Rent-A-Center,2009 N. Saint Marys Street,,Beeville,TX,78102,(361) 358-0102,,Offer Expires 01/13/2025,,12/30/24,308.71,Ultra High Def LED TV,OFF350CBC1,350,ELAINE
,ATATADFDTDAADADFFFAFFDTTADDADFDFTAFTDDFTDFDFDADAFFDADFAAFTAFDAAFD,RAC2501-DM06-A-PU,3,830,***************AUTO**MIXED AADC 786,Joyce Velasco,Or Current Resident,500 S. Hillside Dr. APT. 1404,,Beeville TX 78102-5359,Rent-A-Center,2009 N. Saint Marys Street,,Beeville,TX,78102,(361) 358-0102,,Offer Expires 01/13/2025,,12/30/24,509.01,BEDROOM,OFF400CBC1,400,JOYCE
,AFTATTDTDFAFTDATTTATFDFAATDFDFFAFTTAFDDFFFTDDDAADDATTDDFFTATTDAAD,RAC2501-DM06-A-PU,3,832,***************AUTO**MIXED AADC 786,Joseph Rodriguez,Or Current Resident,139 Chapparral Dr.,,Seguin TX 78155-7015,Rent-A-Center,550 N 123 Bypass,Ste 106,Seguin,TX,78155,(830) 379-6501,,Offer Expires 01/13/2025,,12/30/24,462.70,LIVING ROOM GROUP,OFF400CBC1,400,JOSEPH
,DTDDTDTAFTAFTFDTAFTDADTDFADFDFFFFTATTTTFAAATFDAADTTDATDADDTTTFTAT,RAC2501-DM06-A-PU,3,852,***************AUTO**MIXED AADC 786,Josefina Castro,Or Current Resident,12632 Nursery Dr.,,Victoria TX 77904-5711,Rent-A-Center,1706 N Navarro St,,Victoria,TX,77901-5220,(361) 576-9500,,Offer Expires 01/13/2025,,12/30/24,236.60,LIVING ROOM GROUP,OFF250CBC1,250,JOSEFINA
,FTFFDDFAATADFDFADTDTADAAFFADDATDAAATDTATFTAAFAFFFAAAAFAAFTADTTFTA,RAC2501-DM06-A-PU,3,854,***************AUTO**MIXED AADC 786,Marsha McPherson,Or Current Resident,900 Western Ave. APT. 9,,Robstown TX 78380-2513,Rent-A-Center,228 E Main Ave,,Robstown,TX,78380-3350,(361) 387-5240,,Offer Expires 01/13/2025,,12/30/24,"1,455.39",FULL SIZE WASHER,OFF400CBC1,400,MARSHA
,TTATATDDTATFAATAFFATDDTAAFADADDDAFTTFDFTDTAFAAFAFDFFTDTATTFTTAADA,RAC2501-DM06-A-PU,3,855,***************AUTO**MIXED AADC 786,Bobby Reyes,Or Current Resident,807 Indiana St.,,Robstown TX 78380-3519,Rent-A-Center,228 E Main Ave,,Robstown,TX,78380-3350,(361) 387-5240,,Offer Expires 01/13/2025,,12/30/24,57.57,FULL SIZE DRYER,OFF100CBC1,100,BOBBY
,DTTAAFTFATFAAAADFDTTAFTTTTFFATDDAAFAATFFDFTDFDTDDFFATATFFDAATTDDT,RAC2501-DM06-A-PU,3,857,***************AUTO**MIXED AADC 786,Gil Flesner,Or Current Resident,4033 Mount Rainer Dr.,,Corpus Christi TX 78410-5548,Rent-A-Center,4101 Hwy 77,Ste M7,Corpus Christi,TX,78410-4545,(361) 241-1100,,Offer Expires 01/13/2025,,12/30/24,134.29,LIVING ROOM GROUP,OFF150CBC1,150,GIL
,AAAFTTDTDFFFTDTTFAFFFDTTFTFTFDADTTFDTDATTTADTFTFAFADATAFFAADDFDAF,RAC2501-DM06-A-PU,3,866,***************AUTO**MIXED AADC 786,Kylie King,Or Current Resident,6332 29th St.,,Lubbock TX 79407-2810,Rent-A-Center,2713 50th St,,Lubbock,TX,79413-4321,(806) 793-0495,,Offer Expires 01/13/2025,,12/30/24,804.75,KING MATTRESS+FOUNDATION,OFF400CBC1,400,KYLIE
,ADDAAFFDTADTAFFTATFADATTDADDAFFDTTFFDADFTFDDDATFAFTTFATATDADDDFFF,RAC2501-DM06-A-PU,3,867,***************AUTO**MIXED AADC 786,Diana Alvarez,Or Current Resident,5437 Marsha Sharp Fwy. APT. E10,,Lubbock TX 79407-3456,Rent-A-Center,2125 50th St,Ste B,Lubbock,TX,79412-2653,(806) 744-7368,,Offer Expires 01/13/2025,,12/30/24,308.71,FULL SIZE DRYER,OFF350CBC1,350,DIANA
,DTDTAFDDFFTTAFFTDTTFDDATDTAFFFDTFTDFATFDFFFADFDAFTDTTAAADATDDFFAA,RAC2501-DM06-A-PU,3,868,***************AUTO**MIXED AADC 786,Annette F Castaneda,Or Current Resident,7011 11th St.,,Lubbock TX 79416-2170,Rent-A-Center,2516 34th St,,Lubbock,TX,79410-3518,(806) 747-7368,,Offer Expires 01/13/2025,,12/30/24,"1,097.19",Ultra High Def LED TV,OFF400CBC1,400,ANNETTE F
,DAADFTTTDTTTFDADAAADTFDTFADDDTFFDDTTFTAATDTDDFDFDFATDTTFDDFTDDDAD,RAC2501-DM06-A-PU,3,870,***************AUTO**MIXED AADC 786,Haley Ganaway,Or Current Resident,710 W. Gore Ave.,,Lovington NM 88260-2618,Rent-A-Center,2404 N Grimes St,,Hobbs,NM,88240-2125,(575) 392-2669,,Offer Expires 01/13/2025,,12/30/24,344.53,KING MATTRESS+FOUNDATION,OFF350CBC1,350,HALEY
,TTDTFFTFATTDFDTADDFTTTFTDTDFTFFFTFTFFTFFTFFDDFAFDADTTDTADAADTTAAD,RAC2501-DM06-A-PU,3,871,***************AUTO**MIXED AADC 786,Ricardo Cruz,Or Current Resident,316 W. Avenue H,,Lovington NM 88260-5131,Rent-A-Center,2404 N Grimes St,,Hobbs,NM,88240-2125,(575) 392-2669,,Offer Expires 01/13/2025,,12/30/24,779.78,LIVING ROOM GROUP,OFF400CBC1,400,RICARDO
,TTDTTFFAATAFTFTDDDDDAADDATADFDATADDDTDTATFTTDTAFTFFFFFFADDAAFADTA,RAC2501-DM06-A-PU,3,872,***************AUTO**MIXED AADC 786,Jamie Armstrong,Or Current Resident,111 Northline Dr. TRLR. C,,Early TX 76802-2116,Rent-A-Center,531 W Commerce St,Ste A,Brownwood,TX,76801-1707,(325) 646-3676,,Offer Expires 01/13/2025,,12/30/24,"1,235.32",FULL SIZE WASHER,OFF400CBC1,400,JAMIE
,DADTDAFAAFDTDDDATDDDTTDFDTTDAATDFTDFTTTFFATFTTTDTFDATFADADDTTDFDD,RAC2501-DM06-A-PU,3,873,***************AUTO**MIXED AADC 786,David McWilliams,Or Current Resident,1155 E. 22nd St.,,San Angelo TX 76903-2715,Rent-A-Center,1820 W Beauregard Ave,,San Angelo,TX,76901-3918,(325) 658-1575,,Offer Expires 01/13/2025,,12/30/24,639.79,WASHER DRYR TOP LOAD PAIR,OFF400CBC1,400,DAVID
,TFFFADFTTAAFDDTDFTFAAFAFDATDFATADTDAAADDFAFTTFFTDDTFTADADFFFFTADF,RAC2501-DM06-A-PU,3,875,***************AUTO**MIXED AADC 786,Barbara A Bolden,Or Current Resident,24 Teakwood St.,,Abilene TX 79601-6600,Rent-A-Center,3141 S 14th St,,Abilene,TX,79605-4035,(325) 690-6194,,Offer Expires 01/13/2025,,12/30/24,294.48,STAND,OFF300CBC1,300,BARBARA A
,ATTFDFTDTTTFDDTTTFTTFTATFFAFTAFTTDAATAADTTDFAAFAAAAAFAAFATAFDTFTF,RAC2501-DM06-A-PU,3,876,***************AUTO**MIXED AADC 786,Mikeal Green,Or Current Resident,525 N. Bowie Dr.,,Abilene TX 79603-6519,Rent-A-Center,1206 N Mockingbird Ln,,Abilene,TX,79603-4706,(325) 695-0280,,Offer Expires 01/13/2025,,12/30/24,96.39,LIVING ROOM GROUP,OFF100CBC1,100,MIKEAL
,TDFDDTADFADTADFATTDATAFDTTFTATTTTDFFTTFATTTDFDAADTFDFDATTDADFFFFD,RAC2501-DM06-A-PU,3,877,***************AUTO**MIXED AADC 786,Jacob Collins,Or Current Resident,1034 Red Hawk Cir.,,Abilene TX 79605-3424,Rent-A-Center,3141 S 14th St,,Abilene,TX,79605-4035,(325) 690-6194,,Offer Expires 01/13/2025,,12/30/24,334.67,LIVING ROOM GROUP,OFF350CBC1,350,JACOB
,FATTDTTDTFATFFTADFTDDTTTATFDDATATAFFTTADDAATDTAFATFTFAAFDATATFTFA,RAC2501-DM06-A-PU,3,881,***************AUTO**MIXED AADC 786,Tyrone Springer,Or Current Resident,876 N. Harolds Ave.,,Odessa TX 79763-7493,Rent-A-Center,1651 N County Rd West,,Odessa,TX,79763-2960,(432) 335-0053,,Offer Expires 01/13/2025,,12/30/24,151.96,REFRIGERATOR,OFF200CBC1,200,TYRONE
