Break Mark,IM Barcode,Creative_Version_Cd,Tray Number,Sort Position,Endorsement Line,Full Name,Title,Address Line 1,Address Line 2,City State ZIP Code,STORE NAME,STORE ADDRESS 1,STORE ADDRESS2,SCITY,SSTATE,SZIP,Store_Phone_Number,Store_License,EXPIRES,VERSION,CAMPAIGNDATE,CREDIT,ITEM,CUSTOM_02,CUSTOM_01,First Name,MESSAGE,EXPDATE
,DFTDDAFTFFDADFFTFFDTDDTTDATDADDTTDFAATADAFFFDDDATTTFADDFFFTAFDTDF,RAC2501-DM06-PR-PU,2,10,***************AUTO**MIXED AADC 786,Juana Rodriguez Valentin,Or Current Resident,Bo Boriquen,H.C. 1 Box 16548,Aguadilla PR 00603-9373,Rent-A-Center,Plaza Victoria Shopping Center Carr 2 Km 129.5,,Aguadilla,PR,00603-5665,(787) 882-0315,,La oferta es v涇ida hasta el 13/01/2025,PR,12/30/2024,131.36,BOTTOM MOUNT REFRIGERATOR,OFF150CBC1,150,JUANA,La oferta es v치lida hasta el ,13/01/2025
,DDTTFDATFFDTAFAFTDFTADFTDTDAFFADDATDDAFTAFAFADADTTFTADDDDATTTTTDT,RAC2501-DM06-PR-PU,2,11,***************AUTO**MIXED AADC 786,Hector Carogonzalez,Or Current Resident,PO Box 250075,,Aguadilla PR 00604-0075,Rent-A-Center,Plaza Victoria Shopping Center Carr 2 Km 129.5,,Aguadilla,PR,00603-5665,(787) 882-0315,,La oferta es v涇ida hasta el 13/01/2025,PR,12/30/2024,70.34,QUEEN MATTRESS ONLY,OFF100CBC1,100,HECTOR,La oferta es v치lida hasta el ,13/01/2025
,DTAATFATDATAADFDFTADAFDTTDTTDADDDAAFDAATTFAAADTTFFFTFFDTFDFAFAATT,RAC2501-DM06-PR-PU,2,12,***************AUTO**MIXED AADC 786,Pablo Carrion Torres,Or Current Resident,FF3 Calle 27,,Arecibo PR 00612-2649,Rent-A-Center,109 Vista Azul Shopping Center Ste 1,,Arecibo,PR,00612-2711,(787) 878-1270,,La oferta es v涇ida hasta el 13/01/2025,PR,12/30/2024,64.27,ACCESSORY,OFF100CBC1,100,PABLO,La oferta es v치lida hasta el ,13/01/2025
,TFTTTDFTTDADDFTFTTDTTFTDDDADADATDFATAFTFDAFFDFTAFTDDAFFADTDTATFDT,RAC2501-DM06-PR-PU,2,13,***************AUTO**MIXED AADC 786,Edwin Maldonado Santos,Or Current Resident,V4 Calle Madre Perla,V4 Calle Madre Perla,Dorado PR 00646-2167,Rent-A-Center,"Drive Inn Plaza 2135carr #2, Ste 115",,Bayamon,PR,959,(787) 269-0880,,La oferta es v涇ida hasta el 13/01/2025,PR,12/30/2024,387.8,FULL SIZE WASHER,OFF400CBC1,400,EDWIN,La oferta es v치lida hasta el ,13/01/2025
,DFAFDDDTFATTTDDFTADDTTDFTADDATDDADFDDADFTTDTFAFADTTDATDAFDFFATTAT,RAC2501-DM06-PR-PU,2,14,***************AUTO**MIXED AADC 786,Gustavo Almodovar,Or Current Resident,48 Urb La Rueda,48 Urb La Rueda,Mayaguez PR 00682-7526,Rent-A-Center,University Plaza 2099 Ave Hostos Ste 101,,Mayaguez,PR,680,(787) 265-5255,,La oferta es v涇ida hasta el 13/01/2025,PR,12/30/2024,153.93,FULL SIZE WASHER,OFF200CBC1,200,GUSTAVO,La oferta es v치lida hasta el ,13/01/2025
,FDATFFADTFTDAFDAFATDTADTAFDTADTADATDAATFFDTFDDFDADAFAFFDADFAAATDD,RAC2501-DM06-PR-PU,2,15,***************AUTO**MIXED AADC 786,Luis Ortiz Gutierrez,Or Current Resident,Calle 1,96 Calle 1,Vega Baja PR 00693-4850,Rent-A-Center,Plaza Las Vegas Carr # 2 Km 39.1,,Vega Baja,PR,693,(787) 807-1030,,La oferta es v涇ida hasta el 13/01/2025,PR,12/30/2024,367.77,FULL SIZE WASHER,OFF400CBC1,400,LUIS,La oferta es v치lida hasta el ,13/01/2025
,DFAFFAFTDAAFTTFDFFDDFTTTTDFDFFATTFDFDAAAADDDAATFFTADFFFATFTAAFFDA,RAC2501-DM06-PR-PU,2,16,***************AUTO**MIXED AADC 786,Orlando Roldan Venancio,Or Current Resident,Calle Diamante 24 Apto 3,3 Calle Diamante,Caguas PR 00725-1917,Rent-A-Center,"2 Calle Aquamarina, Ste 123",,Caguas,PR,00725-1921,(787) 746-2288,,La oferta es v涇ida hasta el 13/01/2025,PR,12/30/2024,662.78,Ultra High Def LED TV,OFF400CBC1,400,ORLANDO,La oferta es v치lida hasta el ,13/01/2025
,TAADFDTTAAADFTTDTFFTFTAFDTAATFTAADADFTDAADTATFTTDFDDTATDTFTDDDDFT,RAC2501-DM06-PR-PU,2,17,***************AUTO**MIXED AADC 786,Elba Gonzalez,Or Current Resident,Calle 48,PP31 Calle 48,Ponce PR 00728-2632,Rent-A-Center,"471 Calle Ferrocarill, Ste 132 Santa Maria Shopping Center",,Ponce,PR,00717-4197,(787) 812-8235,,La oferta es v涇ida hasta el 13/01/2025,PR,12/30/2024,606.5,REFRIGERATOR,OFF400CBC1,400,ELBA,La oferta es v치lida hasta el ,13/01/2025
,FDFFDADTAAFTTDDTDFAFTFTFFFFADDFFFTFDADFDTFADDAAAFFFAATFAADDATTDDT,RAC2501-DM06-PR-PU,2,18,***************AUTO**MIXED AADC 786,Brenda Ramos Landron,Or Current Resident,Calle 27,U32 Calle 27,Ponce PR 00728-4409,Rent-A-Center,"471 Calle Ferrocarill, Ste 132 Santa Maria Shopping Center",,Ponce,PR,00717-4197,(787) 812-8235,,La oferta es v涇ida hasta el 13/01/2025,PR,12/30/2024,499.75,LIVING ROOM GROUP,OFF400CBC1,400,BRENDA,La oferta es v치lida hasta el ,13/01/2025
,AAAATTAADFTADFTDFFATATDDDTTADADFDFAFDADATDAFADFFADTTAADAFTFDADTDF,RAC2501-DM06-PR-PU,2,19,***************AUTO**MIXED AADC 786,Wilfred Cortes,Or Current Resident,6 Calle Barbosa N. # 6,,Cayey PR 00736-3730,Rent-A-Center,Ave. Jose De Diego #164,,Cayey,PR,00736-3707,(787) 263-4002,,La oferta es v涇ida hasta el 13/01/2025,PR,12/30/2024,"1,119.65",FULL SIZE WASHER,OFF400CBC1,400,WILFRED,La oferta es v치lida hasta el ,13/01/2025
,TTTAFTATTDFTTADAAAFTDDFFDAADDTFDFAATAATFFADTDTDFFTDATTDFFFDFDATDD,RAC2501-DM06-PR-PU,2,20,***************AUTO**MIXED AADC 786,Kiara Constanza,Or Current Resident,167 Calle Jose Julian Acos,,Fajardo PR 00738-4545,Rent-A-Center,"Fajardo Market Square4495, Ste 1 Calle Marginal",,Fajardo,PR,00738-3890,(787) 860-1510,,La oferta es v涇ida hasta el 13/01/2025,PR,12/30/2024,107.97,REFRIGERATOR,OFF150CBC1,150,KIARA,La oferta es v치lida hasta el ,13/01/2025
,DADDTDAFFFDFFTTDTDADFDDTADDTDFFTDDFDFDDTATTFATDDDFTTFTATAFFFFFDFT,RAC2501-DM06-PR-PU,2,21,***************AUTO**MIXED AADC 786,Edwin E Ventura Santana,Or Current Resident,Calle Begonia,221 Calle Begonia,Juncos PR 00777-3921,Rent-A-Center,State Rd. 31 Space D12-15juncos Plaza,,Juncos,PR,777,(787) 561-4050,,La oferta es v涇ida hasta el 13/01/2025,PR,12/30/2024,250.64,AIR CONDITIONER,OFF300CBC1,300,EDWIN E,La oferta es v치lida hasta el ,13/01/2025
,FTTFTTFATFFFTADADDFDFFFATATDDAAFAAFDAADDDTTTFTFAAAFFFFDATTFAADATT,RAC2501-DM06-PR-PU,2,22,***************AUTO**MIXED AADC 786,Glorimar Dejesusmila,Or Current Resident,105 Concepcion Gracia APT. 604,,San Juan PR 00901-2689,Rent-A-Center,2018 Calle Loiza,,Santurce,PR,00911-1742,(787) 982-0202,,La oferta es v涇ida hasta el 13/01/2025,PR,12/30/2024,133.9,CHAIR,OFF150CBC1,150,GLORIMAR,La oferta es v치lida hasta el ,13/01/2025
,DTDTTATTDADDTATAATDAADAADFADFFAFTTADDAAFFATAFFFFATDFADDFTDFDDFAFF,RAC2501-DM06-PR-PU,2,23,***************AUTO**MIXED AADC 786,William W Pena,Or Current Resident,Calle Cuba,322 Calle Cuba,San Juan PR 00917-4027,Rent-A-Center,Calle De Diego #219,,Rio Piedras,PR,00924-3202,(787) 281-0963,,La oferta es v涇ida hasta el 13/01/2025,PR,12/30/2024,895.31,REFRIGERATOR,OFF400CBC1,400,WILLIAM W,La oferta es v치lida hasta el ,13/01/2025
,TDDAFADAAFFATFDTATTFAFATTTFDFAFADAAADTFFTFDTFDTFAATFDATAADDTAFAAT,RAC2501-DM06-PR-PU,2,24,***************AUTO**MIXED AADC 786,Leovaldo Mendoza,Or Current Resident,363 Calle Jardin De Las Monjas,,Toa Alta PR 00953-3643,Rent-A-Center,Ave Borinquen 2270(Barrio Obreo),,Santurce,PR,00915-4405,(787) 726-2155,,La oferta es v涇ida hasta el 13/01/2025,PR,12/30/2024,108.29,REFRIGERATOR,OFF150CBC1,150,LEOVALDO,La oferta es v치lida hasta el ,13/01/2025
,FFTTTDDATFDDADDFFFFTTDAATFTTFTDAFDTDDAFTATDTAAATDDDTFDFTAFDFATDAD,RAC2501-DM06-PR-PU,2,25,***************AUTO**MIXED AADC 786,Maria Garcia,Or Current Resident,V20 Calle 14,,Bayamon PR 00956-2631,Rent-A-Center,"Drive Inn Plaza 2135carr #2, Ste 115",,Bayamon,PR,959,(787) 269-0880,,La oferta es v涇ida hasta el 13/01/2025,PR,12/30/2024,417.81,COMPUTER,OFF400CBC1,400,MARIA,La oferta es v치lida hasta el ,13/01/2025
,TTTTTTFATDADTAFTATTAFAFAFADTAFFDDADFATTDDTDDFDFFTATFTADAFDTFDFFAD,RAC2501-DM06-PR-PU,2,26,***************AUTO**MIXED AADC 786,Edgardo Soto,Or Current Resident,J26 Calle Azucena,,Bayamon PR 00956-3204,Rent-A-Center,"Drive Inn Plaza 2135carr #2, Ste 115",,Bayamon,PR,959,(787) 269-0880,,La oferta es v涇ida hasta el 13/01/2025,PR,12/30/2024,468.07,FULL SIZE DRYER,OFF400CBC1,400,EDGARDO,La oferta es v치lida hasta el ,13/01/2025
,AAFTDDAAAFFTTAFDTAAADADDDDTTTDTTFDDDDFDFDFFTDDAATFDDDATTDDDFFDTTA,RAC2501-DM06-PR-PU,2,27,***************AUTO**MIXED AADC 786,Sarina Valentineocasio,Or Current Resident,6-2 Calle 50,,Bayamon PR 00956-4520,Rent-A-Center,"Drive Inn Plaza 2135carr #2, Ste 115",,Bayamon,PR,959,(787) 269-0880,,La oferta es v涇ida hasta el 13/01/2025,PR,12/30/2024,"1,025.47",FULL SIZE GAS DRYER,OFF400CBC1,400,SARINA,La oferta es v치lida hasta el ,13/01/2025
,ADFDTTDAFDTTDAATDFFFATATFADADFDADAFFTDADADAADFTATDAATDAAAFAAFFDDF,RAC2501-DM06-PR-PU,2,28,***************AUTO**MIXED AADC 786,Ernest Lopez,Or Current Resident,Tt27 Calle 39,TT27 Calle 39,Bayamon PR 00956-4738,Rent-A-Center,"Drive Inn Plaza 2135carr #2, Ste 115",,Bayamon,PR,959,(787) 269-0880,,La oferta es v涇ida hasta el 13/01/2025,PR,12/30/2024,151.81,FULL SIZE DRYER,OFF200CBC1,200,ERNEST,La oferta es v치lida hasta el ,13/01/2025
,ADFFTADADTFADTAATAFTAAAAFTATTFTFTAFFDTDFDFAAFDDFTFDFATFFFAADFFFFA,RAC2501-DM06-PR-PU,2,29,***************AUTO**MIXED AADC 786,Luis Acevedo Sierra,Or Current Resident,Y-21,Y21 Calle 1,Bayamon PR 00959-3739,Rent-A-Center,"Drive Inn Plaza 2135carr #2, Ste 115",,Bayamon,PR,959,(787) 269-0880,,La oferta es v涇ida hasta el 13/01/2025,PR,12/30/2024,99.35,TWIN MATTRESS ONLY,OFF100CBC1,100,LUIS,La oferta es v치lida hasta el ,13/01/2025
,FDTFATATADDAATAADTFTFFDDTTDFDFFTTAFADTFTADADAATDATFFTTDFAFADTADAA,RAC2501-DM06-PR-PU,2,30,***************AUTO**MIXED AADC 786,Jorge Sterns Patino,Or Current Resident,AT20 Calle Rio Orocovis,,Bayamon PR 00961-3255,Rent-A-Center,"Drive Inn Plaza 2135carr #2, Ste 115",,Bayamon,PR,959,(787) 269-0880,,La oferta es v涇ida hasta el 13/01/2025,PR,12/30/2024,227.94,REFRIGERATOR,OFF250CBC1,250,JORGE,La oferta es v치lida hasta el ,13/01/2025
,ADADTTFADTDFTDFTTAFFFFTTFTTDAFTTTTATAADDTDFAFFAFTAFATTDFTATFDFFDD,RAC2501-DM06-PR-PU,2,31,***************AUTO**MIXED AADC 786,Irma Lugowarner,Or Current Resident,65 Res Juana Matos APT. 642,,Catano PR 00962-3965,Rent-A-Center,Suite A-1 El Canton Mall,,Bayamon,PR,961,(787) 740-4100,,La oferta es v涇ida hasta el 13/01/2025,PR,12/30/2024,158.52,LIVING ROOM GROUP,OFF200CBC1,200,IRMA,La oferta es v치lida hasta el ,13/01/2025
,DTDATADADAFFADDAFFDDADDFTDFAAFADTAAFAAAAADTTAFFDTTTADTFAFFFDTTFDD,RAC2501-DM06-PR-PU,2,32,***************AUTO**MIXED AADC 786,Carmen Rodriguez Seda,Or Current Resident,191 Calle Cucharillas,,Catano PR 00962-5801,Rent-A-Center,Suite A-1 El Canton Mall,,Bayamon,PR,961,(787) 740-4100,,La oferta es v涇ida hasta el 13/01/2025,PR,12/30/2024,108.29,REFRIGERATOR,OFF150CBC1,150,CARMEN,La oferta es v치lida hasta el ,13/01/2025
